{
 "type": "FeatureCollection",
 "features": [
  {
   "type": "Feature",
   "geometry": {
    "type": "Polygon",
    "coordinates": [
     [
      [
       117.636708,
       39.068965
      ],
      [
       117.6368515,
       39.0689573
      ],
      [
       117.6367459,
       39.0677754
      ],
      [
       117.6366027,
       39.0677831
      ],
      [
       117.636708,
       39.068965
      ]
     ]
    ]
   },
   "properties": {
    "osm_id": "way/1497706119",
    "name": "",
    "building_type": "grandstand",
    "height_m": 8.0,
    "levels": 0,
    "height_basis": "看台，按 8 m 估算"
   }
  },
  {
   "type": "Feature",
   "geometry": {
    "type": "Polygon",
    "coordinates": [
     [
      [
       117.6388027,
       39.0688396
      ],
      [
       117.6390119,
       39.0688396
      ],
      [
       117.6391862,
       39.0688376
      ],
      [
       117.6391916,
       39.0688105
      ],
      [
       117.6392587,
       39.0688042
      ],
      [
       117.6392935,
       39.0687938
      ],
      [
       117.6393043,
       39.0687751
      ],
      [
       117.6393043,
       39.0687543
      ],
      [
       117.6392828,
       39.0687293
      ],
      [
       117.6393364,
       39.0687147
      ],
      [
       117.6393782,
       39.068707
      ],
      [
       117.6394303,
       39.0687105
      ],
      [
       117.6394732,
       39.0687147
      ],
      [
       117.6394491,
       39.0687418
      ],
      [
       117.6394571,
       39.0687751
      ],
      [
       117.6394867,
       39.0687876
      ],
      [
       117.6395859,
       39.0687876
      ],
      [
       117.6395939,
       39.0688188
      ],
      [
       117.6397817,
       39.0688042
      ],
      [
       117.6399775,
       39.0687792
      ],
      [
       117.6399641,
       39.0687064
      ],
      [
       117.6401679,
       39.0686939
      ],
      [
       117.6401626,
       39.068571
      ],
      [
       117.639889,
       39.0685835
      ],
      [
       117.6398863,
       39.0686085
      ],
      [
       117.6394893,
       39.0686272
      ],
      [
       117.639488,
       39.0686124
      ],
      [
       117.6395175,
       39.0686134
      ],
      [
       117.6395148,
       39.0685666
      ],
      [
       117.6394813,
       39.0685655
      ],
      [
       117.6394759,
       39.0684344
      ],
      [
       117.6392372,
       39.0684437
      ],
      [
       117.6392439,
       39.0685812
      ],
      [
       117.639209,
       39.0685836
      ],
      [
       117.639209,
       39.0686291
      ],
      [
       117.6392399,
       39.0686259
      ],
      [
       117.6392358,
       39.0686426
      ],
      [
       117.6388416,
       39.0686603
      ],
      [
       117.6388416,
       39.0686343
      ],
      [
       117.6385747,
       39.0686499
      ],
      [
       117.6385908,
       39.0687665
      ],
      [
       117.6387906,
       39.0687561
      ],
      [
       117.6388027,
       39.0688396
      ]
     ]
    ]
   },
   "properties": {
    "osm_id": "way/1497708669",
    "name": "",
    "building_type": "school",
    "height_m": 16.0,
    "levels": 5,
    "height_basis": "按教学实训楼默认 5 层估算"
   }
  },
  {
   "type": "Feature",
   "geometry": {
    "type": "Polygon",
    "coordinates": [
     [
      [
       117.638806,
       39.0695643
      ],
      [
       117.6390963,
       39.0695494
      ],
      [
       117.6390852,
       39.0694195
      ],
      [
       117.6389285,
       39.0694275
      ],
      [
       117.6388969,
       39.0690562
      ],
      [
       117.6387682,
       39.0690628
      ],
      [
       117.6387669,
       39.0690476
      ],
      [
       117.6386665,
       39.0690527
      ],
      [
       117.6386743,
       39.0691449
      ],
      [
       117.6386916,
       39.069144
      ],
      [
       117.6387195,
       39.0694709
      ],
      [
       117.6387977,
       39.0694669
      ],
      [
       117.638806,
       39.0695643
      ]
     ]
    ]
   },
   "properties": {
    "osm_id": "way/1497708670",
    "name": "",
    "building_type": "school",
    "height_m": 16.0,
    "levels": 5,
    "height_basis": "按教学实训楼默认 5 层估算"
   }
  },
  {
   "type": "Feature",
   "geometry": {
    "type": "Polygon",
    "coordinates": [
     [
      [
       117.6400934,
       39.0694979
      ],
      [
       117.6398034,
       39.069516
      ],
      [
       117.63979,
       39.0693862
      ],
      [
       117.6399466,
       39.0693765
      ],
      [
       117.6399083,
       39.0690055
      ],
      [
       117.6400368,
       39.0689975
      ],
      [
       117.6400352,
       39.0689823
      ],
      [
       117.6401356,
       39.068976
      ],
      [
       117.640145,
       39.0690681
      ],
      [
       117.6401278,
       39.0690691
      ],
      [
       117.6401615,
       39.0693957
      ],
      [
       117.6400834,
       39.0694006
      ],
      [
       117.6400934,
       39.0694979
      ]
     ]
    ]
   },
   "properties": {
    "osm_id": "way/1497708671",
    "name": "",
    "building_type": "school",
    "height_m": 16.0,
    "levels": 5,
    "height_basis": "按教学实训楼默认 5 层估算"
   }
  },
  {
   "type": "Feature",
   "geometry": {
    "type": "Polygon",
    "coordinates": [
     [
      [
       117.6410269,
       39.0687839
      ],
      [
       117.6408186,
       39.0687925
      ],
      [
       117.6406906,
       39.0688012
      ],
      [
       117.6406915,
       39.0688552
      ],
      [
       117.6406751,
       39.0688733
      ],
      [
       117.6406658,
       39.0688987
      ],
      [
       117.6406611,
       39.0689223
      ],
      [
       117.6406635,
       39.0689513
      ],
      [
       117.6406751,
       39.0689785
      ],
      [
       117.6406868,
       39.0690093
      ],
      [
       117.6407148,
       39.0690347
      ],
      [
       117.6407639,
       39.0690619
      ],
      [
       117.6408152,
       39.0690746
      ],
      [
       117.6409133,
       39.0690746
      ],
      [
       117.640918,
       39.0691253
      ],
      [
       117.6412309,
       39.0691126
      ],
      [
       117.6412309,
       39.069138
      ],
      [
       117.6413079,
       39.0691362
      ],
      [
       117.6413056,
       39.0691072
      ],
      [
       117.6413453,
       39.0690999
      ],
      [
       117.6413756,
       39.0690782
      ],
      [
       117.6413943,
       39.0690546
      ],
      [
       117.6414036,
       39.0690202
      ],
      [
       117.6414013,
       39.0689966
      ],
      [
       117.641385,
       39.0689604
      ],
      [
       117.6413546,
       39.068944
      ],
      [
       117.6413173,
       39.0689259
      ],
      [
       117.6412729,
       39.0689295
      ],
      [
       117.6412309,
       39.068944
      ],
      [
       117.6412052,
       39.0689585
      ],
      [
       117.6411935,
       39.0689875
      ],
      [
       117.6411211,
       39.068993
      ],
      [
       117.6411094,
       39.0688298
      ],
      [
       117.6411094,
       39.0688117
      ],
      [
       117.6411398,
       39.0688099
      ],
      [
       117.6411561,
       39.0687972
      ],
      [
       117.6411541,
       39.0687827
      ],
      [
       117.641127,
       39.0687786
      ],
      [
       117.6410269,
       39.0687839
      ]
     ]
    ]
   },
   "properties": {
    "osm_id": "way/1497708672",
    "name": "",
    "building_type": "school",
    "height_m": 16.0,
    "levels": 5,
    "height_basis": "按教学实训楼默认 5 层估算"
   }
  },
  {
   "type": "Feature",
   "geometry": {
    "type": "Polygon",
    "coordinates": [
     [
      [
       117.6378326,
       39.0653738
      ],
      [
       117.6378964,
       39.0653708
      ],
      [
       117.6378986,
       39.0653993
      ],
      [
       117.6380129,
       39.0653938
      ],
      [
       117.6380108,
       39.0653672
      ],
      [
       117.6385209,
       39.0653425
      ],
      [
       117.6385232,
       39.0653708
      ],
      [
       117.6396709,
       39.0653153
      ],
      [
       117.6396686,
       39.0652861
      ],
      [
       117.6401937,
       39.0652608
      ],
      [
       117.640196,
       39.0652897
      ],
      [
       117.6403685,
       39.0652813
      ],
      [
       117.6403579,
       39.0651492
      ],
      [
       117.6402488,
       39.0651544
      ],
      [
       117.6402438,
       39.0650913
      ],
      [
       117.6379206,
       39.0652031
      ],
      [
       117.6379252,
       39.0652609
      ],
      [
       117.6378239,
       39.0652658
      ],
      [
       117.6378326,
       39.0653738
      ]
     ]
    ]
   },
   "properties": {
    "osm_id": "way/1497712889",
    "name": "",
    "building_type": "school",
    "height_m": 16.0,
    "levels": 5,
    "height_basis": "按教学实训楼默认 5 层估算"
   }
  },
  {
   "type": "Feature",
   "geometry": {
    "type": "Polygon",
    "coordinates": [
     [
      [
       117.6323703,
       39.0672736
      ],
      [
       117.6333192,
       39.0672187
      ],
      [
       117.6332933,
       39.0669477
      ],
      [
       117.6323443,
       39.0670024
      ],
      [
       117.6323703,
       39.0672736
      ]
     ]
    ]
   },
   "properties": {
    "osm_id": "way/1497712894",
    "name": "",
    "building_type": "school",
    "height_m": 16.0,
    "levels": 5,
    "height_basis": "按教学实训楼默认 5 层估算"
   }
  },
  {
   "type": "Feature",
   "geometry": {
    "type": "Polygon",
    "coordinates": [
     [
      [
       117.6349069,
       39.0651248
      ],
      [
       117.635757,
       39.0651182
      ],
      [
       117.6357519,
       39.0647225
      ],
      [
       117.6349018,
       39.0647289
      ],
      [
       117.6349069,
       39.0651248
      ]
     ]
    ]
   },
   "properties": {
    "osm_id": "way/1497712897",
    "name": "",
    "building_type": "school",
    "height_m": 16.0,
    "levels": 5,
    "height_basis": "按教学实训楼默认 5 层估算"
   }
  },
  {
   "type": "Feature",
   "geometry": {
    "type": "Polygon",
    "coordinates": [
     [
      [
       117.6329547,
       39.0651408
      ],
      [
       117.6338157,
       39.0651396
      ],
      [
       117.6338147,
       39.0647022
      ],
      [
       117.6329536,
       39.0647035
      ],
      [
       117.6329547,
       39.0651408
      ]
     ]
    ]
   },
   "properties": {
    "osm_id": "way/1497712898",
    "name": "",
    "building_type": "school",
    "height_m": 16.0,
    "levels": 5,
    "height_basis": "按教学实训楼默认 5 层估算"
   }
  },
  {
   "type": "Feature",
   "geometry": {
    "type": "Polygon",
    "coordinates": [
     [
      [
       117.6353508,
       39.0704006
      ],
      [
       117.6360298,
       39.0703595
      ],
      [
       117.6359891,
       39.0700092
      ],
      [
       117.635733,
       39.070025
      ],
      [
       117.6357519,
       39.0702333
      ],
      [
       117.6355582,
       39.0702427
      ],
      [
       117.6355532,
       39.0702
      ],
      [
       117.6355478,
       39.0701709
      ],
      [
       117.6355318,
       39.0701459
      ],
      [
       117.6355076,
       39.0701313
      ],
      [
       117.6354701,
       39.0701313
      ],
      [
       117.6354432,
       39.0701375
      ],
      [
       117.6354218,
       39.0701542
      ],
      [
       117.6354084,
       39.0701813
      ],
      [
       117.6354137,
       39.0702521
      ],
      [
       117.635336,
       39.0702583
      ],
      [
       117.6353508,
       39.0704006
      ]
     ]
    ]
   },
   "properties": {
    "osm_id": "way/1497712899",
    "name": "",
    "building_type": "school",
    "height_m": 16.0,
    "levels": 5,
    "height_basis": "按教学实训楼默认 5 层估算"
   }
  },
  {
   "type": "Feature",
   "geometry": {
    "type": "Polygon",
    "coordinates": [
     [
      [
       117.6351786,
       39.0698955
      ],
      [
       117.6353609,
       39.0698858
      ],
      [
       117.6353237,
       39.0694621
      ],
      [
       117.6351414,
       39.0694717
      ],
      [
       117.6351786,
       39.0698955
      ]
     ]
    ]
   },
   "properties": {
    "osm_id": "way/1497712900",
    "name": "",
    "building_type": "school",
    "height_m": 16.0,
    "levels": 5,
    "height_basis": "按教学实训楼默认 5 层估算"
   }
  },
  {
   "type": "Feature",
   "geometry": {
    "type": "Polygon",
    "coordinates": [
     [
      [
       117.6350521,
       39.0692737
      ],
      [
       117.6353392,
       39.0692607
      ],
      [
       117.6353225,
       39.069038
      ],
      [
       117.6353547,
       39.0690255
      ],
      [
       117.6353762,
       39.0690047
      ],
      [
       117.6353789,
       39.0689756
      ],
      [
       117.6353655,
       39.0689485
      ],
      [
       117.6353386,
       39.0689277
      ],
      [
       117.6352957,
       39.0689256
      ],
      [
       117.6352635,
       39.068936
      ],
      [
       117.6352421,
       39.0689527
      ],
      [
       117.635226,
       39.0689756
      ],
      [
       117.6351296,
       39.0689799
      ],
      [
       117.635122,
       39.0688785
      ],
      [
       117.6350228,
       39.068883
      ],
      [
       117.6350521,
       39.0692737
      ]
     ]
    ]
   },
   "properties": {
    "osm_id": "way/1497712901",
    "name": "",
    "building_type": "school",
    "height_m": 16.0,
    "levels": 5,
    "height_basis": "按教学实训楼默认 5 层估算"
   }
  },
  {
   "type": "Feature",
   "geometry": {
    "type": "Polygon",
    "coordinates": [
     [
      [
       117.6349021,
       39.0685723
      ],
      [
       117.6350021,
       39.0685656
      ],
      [
       117.6349918,
       39.0684723
      ],
      [
       117.6350462,
       39.0684679
      ],
      [
       117.6350597,
       39.0684924
      ],
      [
       117.6350838,
       39.068507
      ],
      [
       117.635117,
       39.0685209
      ],
      [
       117.6351562,
       39.0685174
      ],
      [
       117.6351804,
       39.0685028
      ],
      [
       117.6351938,
       39.0684737
      ],
      [
       117.6352472,
       39.0684701
      ],
      [
       117.6352166,
       39.0681952
      ],
      [
       117.6352637,
       39.068192
      ],
      [
       117.6352483,
       39.0680536
      ],
      [
       117.6350205,
       39.0680688
      ],
      [
       117.6350245,
       39.0681049
      ],
      [
       117.6349307,
       39.0681112
      ],
      [
       117.6349483,
       39.0682699
      ],
      [
       117.6348692,
       39.0682752
      ],
      [
       117.6349021,
       39.0685723
      ]
     ]
    ]
   },
   "properties": {
    "osm_id": "way/1497712902",
    "name": "",
    "building_type": "school",
    "height_m": 16.0,
    "levels": 5,
    "height_basis": "按教学实训楼默认 5 层估算"
   }
  },
  {
   "type": "Feature",
   "geometry": {
    "type": "Polygon",
    "coordinates": [
     [
      [
       117.6398469,
       39.0700389
      ],
      [
       117.6404539,
       39.0700078
      ],
      [
       117.6404477,
       39.0699408
      ],
      [
       117.6404804,
       39.0699404
      ],
      [
       117.6404865,
       39.0699199
      ],
      [
       117.6404844,
       39.069901
      ],
      [
       117.6404763,
       39.0698821
      ],
      [
       117.6404397,
       39.0698789
      ],
      [
       117.6404316,
       39.0697479
      ],
      [
       117.6403686,
       39.0697479
      ],
      [
       117.6403645,
       39.0697337
      ],
      [
       117.6403116,
       39.0697353
      ],
      [
       117.6403137,
       39.0697526
      ],
      [
       117.6402507,
       39.0697574
      ],
      [
       117.6401937,
       39.0697605
      ],
      [
       117.6401531,
       39.06977
      ],
      [
       117.6401165,
       39.0697858
      ],
      [
       117.6400982,
       39.0698095
      ],
      [
       117.6400962,
       39.069841
      ],
      [
       117.6400982,
       39.069901
      ],
      [
       117.639838,
       39.0699152
      ],
      [
       117.6398469,
       39.0700389
      ]
     ]
    ]
   },
   "properties": {
    "osm_id": "way/1497712911",
    "name": "",
    "building_type": "school",
    "height_m": 16.0,
    "levels": 5,
    "height_basis": "按教学实训楼默认 5 层估算"
   }
  },
  {
   "type": "Feature",
   "geometry": {
    "type": "Polygon",
    "coordinates": [
     [
      [
       117.6382627,
       39.0701176
      ],
      [
       117.638716,
       39.0700907
      ],
      [
       117.638716,
       39.0701097
      ],
      [
       117.6387485,
       39.0700923
      ],
      [
       117.6387851,
       39.0700797
      ],
      [
       117.6387892,
       39.0701223
      ],
      [
       117.638905,
       39.070116
      ],
      [
       117.638903,
       39.0700718
      ],
      [
       117.6389294,
       39.070075
      ],
      [
       117.6389619,
       39.0700844
      ],
      [
       117.6389965,
       39.0700986
      ],
      [
       117.6389981,
       39.0700865
      ],
      [
       117.6390675,
       39.0700841
      ],
      [
       117.6390628,
       39.0700458
      ],
      [
       117.6391198,
       39.0700434
      ],
      [
       117.6391214,
       39.0700542
      ],
      [
       117.6391599,
       39.0700542
      ],
      [
       117.6391507,
       39.0698963
      ],
      [
       117.6389612,
       39.0699071
      ],
      [
       117.6389596,
       39.0699262
      ],
      [
       117.6388811,
       39.0699298
      ],
      [
       117.6388703,
       39.069919
      ],
      [
       117.6388456,
       39.0699119
      ],
      [
       117.6388148,
       39.0699155
      ],
      [
       117.6387917,
       39.0699262
      ],
      [
       117.6387825,
       39.0699394
      ],
      [
       117.6387116,
       39.0699454
      ],
      [
       117.638707,
       39.069925
      ],
      [
       117.6382895,
       39.0699501
      ],
      [
       117.6382941,
       39.0700016
      ],
      [
       117.6382494,
       39.070004
      ],
      [
       117.6382627,
       39.0701176
      ]
     ]
    ]
   },
   "properties": {
    "osm_id": "way/1497712918",
    "name": "",
    "building_type": "school",
    "height_m": 16.0,
    "levels": 5,
    "height_basis": "按教学实训楼默认 5 层估算"
   }
  },
  {
   "type": "Feature",
   "geometry": {
    "type": "Polygon",
    "coordinates": [
     [
      [
       117.6362653,
       39.0702381
      ],
      [
       117.6362489,
       39.0700743
      ],
      [
       117.6366155,
       39.0700523
      ],
      [
       117.6366318,
       39.0702162
      ],
      [
       117.6362653,
       39.0702381
      ]
     ]
    ]
   },
   "properties": {
    "osm_id": "way/1497712919",
    "name": "",
    "building_type": "yes",
    "height_m": 12.8,
    "levels": 4,
    "height_basis": "按通用建筑默认 4 层估算"
   }
  },
  {
   "type": "Feature",
   "geometry": {
    "type": "Polygon",
    "coordinates": [
     [
      [
       117.635921,
       39.0698033
      ],
      [
       117.6364689,
       39.0697758
      ],
      [
       117.6364709,
       39.0697943
      ],
      [
       117.6366035,
       39.0697859
      ],
      [
       117.6366008,
       39.0697603
      ],
      [
       117.6366246,
       39.0697588
      ],
      [
       117.6366175,
       39.0696911
      ],
      [
       117.6365746,
       39.0696938
      ],
      [
       117.6365702,
       39.0696524
      ],
      [
       117.6364146,
       39.0696622
      ],
      [
       117.6364167,
       39.0696819
      ],
      [
       117.6363432,
       39.0696866
      ],
      [
       117.6363409,
       39.0696651
      ],
      [
       117.6361896,
       39.0696747
      ],
      [
       117.6361922,
       39.0697
      ],
      [
       117.6361203,
       39.0697046
      ],
      [
       117.6361169,
       39.0696714
      ],
      [
       117.6359523,
       39.0696818
      ],
      [
       117.6359545,
       39.0697031
      ],
      [
       117.6359101,
       39.0697079
      ],
      [
       117.635921,
       39.0698033
      ]
     ]
    ]
   },
   "properties": {
    "osm_id": "way/1497712922",
    "name": "学生公寓1号楼",
    "building_type": "yes",
    "height_m": 19.2,
    "levels": 6,
    "height_basis": "按学生公寓默认 6 层估算"
   }
  },
  {
   "type": "Feature",
   "geometry": {
    "type": "Polygon",
    "coordinates": [
     [
      [
       117.6359903,
       39.0694454
      ],
      [
       117.6361311,
       39.0694389
      ],
      [
       117.6361296,
       39.0694201
      ],
      [
       117.6363653,
       39.0694093
      ],
      [
       117.6363662,
       39.0694222
      ],
      [
       117.6364996,
       39.0694162
      ],
      [
       117.6364983,
       39.0693987
      ],
      [
       117.6365417,
       39.0693968
      ],
      [
       117.6365382,
       39.0693503
      ],
      [
       117.6365533,
       39.0693496
      ],
      [
       117.6365622,
       39.0693372
      ],
      [
       117.6365551,
       39.0693239
      ],
      [
       117.6365395,
       39.0693237
      ],
      [
       117.6365361,
       39.0692787
      ],
      [
       117.6359431,
       39.0693101
      ],
      [
       117.635947,
       39.0693541
      ],
      [
       117.6359287,
       39.0693551
      ],
      [
       117.6359198,
       39.0693674
      ],
      [
       117.6359287,
       39.0693784
      ],
      [
       117.6359492,
       39.0693775
      ],
      [
       117.6359529,
       39.0694256
      ],
      [
       117.6359887,
       39.069424
      ],
      [
       117.6359903,
       39.0694454
      ]
     ]
    ]
   },
   "properties": {
    "osm_id": "way/1497712923",
    "name": "学生公寓2号楼",
    "building_type": "yes",
    "height_m": 19.2,
    "levels": 6,
    "height_basis": "按学生公寓默认 6 层估算"
   }
  },
  {
   "type": "Feature",
   "geometry": {
    "type": "Polygon",
    "coordinates": [
     [
      [
       117.635962,
       39.0691239
      ],
      [
       117.6361027,
       39.0691174
      ],
      [
       117.6361013,
       39.0690986
      ],
      [
       117.636337,
       39.0690878
      ],
      [
       117.6363379,
       39.0691007
      ],
      [
       117.6364713,
       39.0690947
      ],
      [
       117.63647,
       39.0690773
      ],
      [
       117.6365134,
       39.0690753
      ],
      [
       117.6365099,
       39.0690288
      ],
      [
       117.636525,
       39.0690281
      ],
      [
       117.6365339,
       39.0690157
      ],
      [
       117.6365268,
       39.0690025
      ],
      [
       117.6365112,
       39.0690022
      ],
      [
       117.6365077,
       39.0689572
      ],
      [
       117.6359148,
       39.0689886
      ],
      [
       117.6359187,
       39.0690326
      ],
      [
       117.6359004,
       39.0690336
      ],
      [
       117.6358915,
       39.0690459
      ],
      [
       117.6359004,
       39.0690569
      ],
      [
       117.6359209,
       39.069056
      ],
      [
       117.6359246,
       39.0691041
      ],
      [
       117.6359604,
       39.0691025
      ],
      [
       117.635962,
       39.0691239
      ]
     ]
    ]
   },
   "properties": {
    "osm_id": "way/1497712924",
    "name": "学生公寓3号楼",
    "building_type": "yes",
    "height_m": 19.2,
    "levels": 6,
    "height_basis": "按学生公寓默认 6 层估算"
   }
  },
  {
   "type": "Feature",
   "geometry": {
    "type": "Polygon",
    "coordinates": [
     [
      [
       117.6358964,
       39.0683979
      ],
      [
       117.6360371,
       39.0683914
      ],
      [
       117.6360357,
       39.0683726
      ],
      [
       117.6362714,
       39.0683618
      ],
      [
       117.6362723,
       39.0683747
      ],
      [
       117.6364057,
       39.0683687
      ],
      [
       117.6364044,
       39.0683513
      ],
      [
       117.6364478,
       39.0683493
      ],
      [
       117.6364443,
       39.0683028
      ],
      [
       117.6364594,
       39.0683021
      ],
      [
       117.6364683,
       39.0682897
      ],
      [
       117.6364612,
       39.0682765
      ],
      [
       117.6364456,
       39.0682762
      ],
      [
       117.6364421,
       39.0682312
      ],
      [
       117.6358492,
       39.0682626
      ],
      [
       117.6358531,
       39.0683066
      ],
      [
       117.6358348,
       39.0683076
      ],
      [
       117.6358259,
       39.0683199
      ],
      [
       117.6358348,
       39.0683309
      ],
      [
       117.6358553,
       39.06833
      ],
      [
       117.635859,
       39.0683781
      ],
      [
       117.6358948,
       39.0683765
      ],
      [
       117.6358964,
       39.0683979
      ]
     ]
    ]
   },
   "properties": {
    "osm_id": "way/1497712925",
    "name": "学生公寓4号楼",
    "building_type": "yes",
    "height_m": 19.2,
    "levels": 6,
    "height_basis": "按学生公寓默认 6 层估算"
   }
  },
  {
   "type": "Feature",
   "geometry": {
    "type": "Polygon",
    "coordinates": [
     [
      [
       117.6358696,
       39.0680689
      ],
      [
       117.6360103,
       39.0680624
      ],
      [
       117.6360089,
       39.0680436
      ],
      [
       117.6362445,
       39.0680328
      ],
      [
       117.6362455,
       39.0680457
      ],
      [
       117.6363789,
       39.0680397
      ],
      [
       117.6363776,
       39.0680222
      ],
      [
       117.6364209,
       39.0680203
      ],
      [
       117.6364174,
       39.0679737
      ],
      [
       117.6364326,
       39.0679731
      ],
      [
       117.6364415,
       39.0679607
      ],
      [
       117.6364344,
       39.0679474
      ],
      [
       117.6364188,
       39.0679472
      ],
      [
       117.6364153,
       39.0679022
      ],
      [
       117.6358224,
       39.0679336
      ],
      [
       117.6358262,
       39.0679776
      ],
      [
       117.6358079,
       39.0679786
      ],
      [
       117.6357991,
       39.0679909
      ],
      [
       117.6358079,
       39.0680019
      ],
      [
       117.6358285,
       39.068001
      ],
      [
       117.6358321,
       39.0680491
      ],
      [
       117.635868,
       39.0680474
      ],
      [
       117.6358696,
       39.0680689
      ]
     ]
    ]
   },
   "properties": {
    "osm_id": "way/1497712926",
    "name": "学生公寓5号楼",
    "building_type": "yes",
    "height_m": 19.2,
    "levels": 6,
    "height_basis": "按学生公寓默认 6 层估算"
   }
  },
  {
   "type": "Feature",
   "geometry": {
    "type": "Polygon",
    "coordinates": [
     [
      [
       117.6358428,
       39.0676982
      ],
      [
       117.6359835,
       39.0676917
      ],
      [
       117.6359821,
       39.0676729
      ],
      [
       117.6362177,
       39.0676621
      ],
      [
       117.6362187,
       39.067675
      ],
      [
       117.636352,
       39.067669
      ],
      [
       117.6363507,
       39.0676516
      ],
      [
       117.6363941,
       39.0676496
      ],
      [
       117.6363906,
       39.0676031
      ],
      [
       117.6364058,
       39.0676024
      ],
      [
       117.6364146,
       39.06759
      ],
      [
       117.6364076,
       39.0675768
      ],
      [
       117.636392,
       39.0675765
      ],
      [
       117.6363885,
       39.0675315
      ],
      [
       117.6357955,
       39.0675629
      ],
      [
       117.6357994,
       39.0676069
      ],
      [
       117.6357811,
       39.0676079
      ],
      [
       117.6357723,
       39.0676202
      ],
      [
       117.6357811,
       39.0676312
      ],
      [
       117.6358017,
       39.0676303
      ],
      [
       117.6358053,
       39.0676784
      ],
      [
       117.6358412,
       39.0676768
      ],
      [
       117.6358428,
       39.0676982
      ]
     ]
    ]
   },
   "properties": {
    "osm_id": "way/1497712927",
    "name": "学生公寓6号楼",
    "building_type": "yes",
    "height_m": 19.2,
    "levels": 6,
    "height_basis": "按学生公寓默认 6 层估算"
   }
  },
  {
   "type": "Feature",
   "geometry": {
    "type": "Polygon",
    "coordinates": [
     [
      [
       117.6349925,
       39.0677398
      ],
      [
       117.6351332,
       39.0677334
      ],
      [
       117.6351318,
       39.0677145
      ],
      [
       117.6353674,
       39.0677038
      ],
      [
       117.6353684,
       39.0677167
      ],
      [
       117.6355018,
       39.0677106
      ],
      [
       117.6355005,
       39.0676932
      ],
      [
       117.6355439,
       39.0676912
      ],
      [
       117.6355404,
       39.0676447
      ],
      [
       117.6355555,
       39.067644
      ],
      [
       117.6355644,
       39.0676317
      ],
      [
       117.6355573,
       39.0676184
      ],
      [
       117.6355417,
       39.0676181
      ],
      [
       117.6355382,
       39.0675732
      ],
      [
       117.6349453,
       39.0676045
      ],
      [
       117.6349491,
       39.0676486
      ],
      [
       117.6349309,
       39.0676495
      ],
      [
       117.634922,
       39.0676619
      ],
      [
       117.6349309,
       39.0676729
      ],
      [
       117.6349514,
       39.0676719
      ],
      [
       117.6349551,
       39.0677201
      ],
      [
       117.6349909,
       39.0677184
      ],
      [
       117.6349925,
       39.0677398
      ]
     ]
    ]
   },
   "properties": {
    "osm_id": "way/1497712928",
    "name": "学生公寓7号楼",
    "building_type": "yes",
    "height_m": 19.2,
    "levels": 6,
    "height_basis": "按学生公寓默认 6 层估算"
   }
  },
  {
   "type": "Feature",
   "geometry": {
    "type": "Polygon",
    "coordinates": [
     [
      [
       117.634963,
       39.0674108
      ],
      [
       117.6351037,
       39.0674044
      ],
      [
       117.6351023,
       39.0673855
      ],
      [
       117.6353379,
       39.0673747
      ],
      [
       117.6353389,
       39.0673877
      ],
      [
       117.6354723,
       39.0673816
      ],
      [
       117.635471,
       39.0673642
      ],
      [
       117.6355144,
       39.0673622
      ],
      [
       117.6355109,
       39.0673157
      ],
      [
       117.635526,
       39.067315
      ],
      [
       117.6355349,
       39.0673026
      ],
      [
       117.6355278,
       39.0672894
      ],
      [
       117.6355122,
       39.0672891
      ],
      [
       117.6355087,
       39.0672441
      ],
      [
       117.6349158,
       39.0672755
      ],
      [
       117.6349196,
       39.0673195
      ],
      [
       117.6349014,
       39.0673205
      ],
      [
       117.6348925,
       39.0673329
      ],
      [
       117.6349014,
       39.0673438
      ],
      [
       117.6349219,
       39.0673429
      ],
      [
       117.6349256,
       39.067391
      ],
      [
       117.6349614,
       39.0673894
      ],
      [
       117.634963,
       39.0674108
      ]
     ]
    ]
   },
   "properties": {
    "osm_id": "way/1497712929",
    "name": "学生公寓8号楼",
    "building_type": "yes",
    "height_m": 19.2,
    "levels": 6,
    "height_basis": "按学生公寓默认 6 层估算"
   }
  },
  {
   "type": "Feature",
   "geometry": {
    "type": "Polygon",
    "coordinates": [
     [
      [
       117.6358186,
       39.0673608
      ],
      [
       117.6359594,
       39.0673544
      ],
      [
       117.6359579,
       39.0673355
      ],
      [
       117.6361936,
       39.0673248
      ],
      [
       117.6361945,
       39.0673377
      ],
      [
       117.6363279,
       39.0673316
      ],
      [
       117.6363266,
       39.0673142
      ],
      [
       117.63637,
       39.0673122
      ],
      [
       117.6363665,
       39.0672657
      ],
      [
       117.6363816,
       39.067265
      ],
      [
       117.6363905,
       39.0672527
      ],
      [
       117.6363834,
       39.0672394
      ],
      [
       117.6363678,
       39.0672391
      ],
      [
       117.6363644,
       39.0671942
      ],
      [
       117.6357714,
       39.0672255
      ],
      [
       117.6357753,
       39.0672695
      ],
      [
       117.635757,
       39.0672705
      ],
      [
       117.6357481,
       39.0672829
      ],
      [
       117.635757,
       39.0672939
      ],
      [
       117.6357775,
       39.0672929
      ],
      [
       117.6357812,
       39.067341
      ],
      [
       117.635817,
       39.0673394
      ],
      [
       117.6358186,
       39.0673608
      ]
     ]
    ]
   },
   "properties": {
    "osm_id": "way/1497712930",
    "name": "学生公寓9号楼",
    "building_type": "yes",
    "height_m": 19.2,
    "levels": 6,
    "height_basis": "按学生公寓默认 6 层估算"
   }
  },
  {
   "type": "Feature",
   "geometry": {
    "type": "Polygon",
    "coordinates": [
     [
      [
       117.6408186,
       39.0687925
      ],
      [
       117.6410269,
       39.0687839
      ],
      [
       117.6410105,
       39.0685443
      ],
      [
       117.6407322,
       39.0685558
      ],
      [
       117.6407274,
       39.0684851
      ],
      [
       117.640668,
       39.0684876
      ],
      [
       117.6406664,
       39.068465
      ],
      [
       117.640508,
       39.0684716
      ],
      [
       117.6405094,
       39.0684927
      ],
      [
       117.6404343,
       39.0684958
      ],
      [
       117.6404522,
       39.0687567
      ],
      [
       117.6405459,
       39.0687528
      ],
      [
       117.6405444,
       39.0687316
      ],
      [
       117.6408137,
       39.0687205
      ],
      [
       117.6408186,
       39.0687925
      ]
     ]
    ]
   },
   "properties": {
    "osm_id": "way/1497758057",
    "name": "",
    "building_type": "school",
    "height_m": 16.0,
    "levels": 5,
    "height_basis": "按教学实训楼默认 5 层估算"
   }
  }
 ]
}