{"type": "FeatureCollection", "metadata": {"source": "OpenStreetMap via Overpass API, ODbL 1.0", "fetched_utc": "2026-10-04T05:57:57Z", "crs": "EPSG:4326", "note": "天津滨海职业学院校园边界；OSM 标签 amenity=university"}, "features": [{"type": "Feature", "id": "way/1497675348", "geometry": {"type": "Polygon", "coordinates": [[[117.6367317, 39.0703076], [117.6423924, 39.0700489], [117.6421133, 39.0656283], [117.6421074, 39.065543], [117.642071, 39.0655242], [117.6415821, 39.065526], [117.6414119, 39.0653473], [117.6409752, 39.0652481], [117.6407541, 39.0652582], [117.6404921, 39.0652376], [117.6404764, 39.0650646], [117.6378259, 39.0648913], [117.6370358, 39.064929], [117.637007, 39.0647305], [117.6358177, 39.0646157], [117.6358076, 39.0645889], [117.6355046, 39.0645614], [117.635505, 39.0645133], [117.6352745, 39.0644906], [117.6346375, 39.0644468], [117.6342414, 39.0644196], [117.6311503, 39.064235], [117.6307874, 39.064682], [117.631313, 39.0656439], [117.6312254, 39.0657022], [117.6309876, 39.0657022], [117.6310002, 39.0657993], [117.6319262, 39.0672956], [117.6339105, 39.0705226], [117.6353647, 39.0704508], [117.6367317, 39.0703076]]]}, "properties": {"amenity": "university", "education": "university", "name": "天津滨海职业学院", "osm_id": "way/1497675348", "category": "amenity:university"}}]}