{"type": "FeatureCollection", "metadata": {"source": "OpenStreetMap via Overpass API, ODbL 1.0", "fetched_utc": "2026-10-04T05:58:01Z", "crs": "EPSG:4326", "note": "校园及周边建筑/道路/场地/水体/绿地要素；in_campus 字段标注是否落在校园边界内"}, "features": [{"type": "Feature", "id": "way/58718614", "geometry": {"type": "LineString", "coordinates": [[117.6431319, 39.0747804], [117.643164, 39.0736577], [117.642908, 39.0705867], [117.6428893, 39.0704235], [117.6428814, 39.070272], [117.6425827, 39.0667369], [117.6424884, 39.0656203], [117.642447, 39.0651134]]}, "properties": {"highway": "tertiary", "name": "厦门路", "oneway": "yes", "osm_id": "way/58718614", "category": "highway:tertiary", "in_campus": false}}, {"type": "Feature", "id": "way/106289343", "geometry": {"type": "LineString", "coordinates": [[117.6297265, 39.0712499], [117.6284944, 39.0713433], [117.6276549, 39.0714008], [117.627244, 39.071441], [117.6222171, 39.0718912], [117.6212658, 39.0719827], [117.6195319, 39.0721537], [117.618284, 39.0722949], [117.6131179, 39.0728956]]}, "properties": {"highway": "primary", "lanes": "2", "motorroad": "yes", "name": "北大街", "name:en": "Bei Avenue", "oneway": "yes", "osm_id": "way/106289343", "category": "highway:primary", "in_campus": false}}, {"type": "Feature", "id": "way/106289356", "geometry": {"type": "LineString", "coordinates": [[117.6825729, 39.0652098], [117.6809304, 39.0656399], [117.6789504, 39.0661512], [117.6770411, 39.0666076], [117.6757278, 39.066901], [117.6743052, 39.0672089], [117.6729012, 39.0674909], [117.671737, 39.0677188], [117.6703816, 39.0679624], [117.6692287, 39.0681623], [117.6659443, 39.0686919], [117.664564, 39.0688832], [117.6631979, 39.0690636], [117.6617293, 39.0692418], [117.660583, 39.0693728], [117.6596648, 39.0694698], [117.6585834, 39.0695818], [117.6581429, 39.0696308], [117.657023, 39.0697232], [117.6555031, 39.0698318], [117.6527542, 39.0700182], [117.6438833, 39.0704338], [117.6368406, 39.0708089], [117.6330225, 39.0710178]]}, "properties": {"bridge": "viaduct", "highway": "primary", "lanes": "2", "layer": "1", "motorroad": "yes", "name": "第九大街", "name:en": "9st Street", "oneway": "yes", "osm_id": "way/106289356", "category": "highway:primary", "in_campus": false}}, {"type": "Feature", "id": "way/107185814", "geometry": {"type": "LineString", "coordinates": [[117.6129073, 39.0727609], [117.6130812, 39.0727345], [117.6150069, 39.0724979], [117.6181535, 39.072122], [117.6212497, 39.0717846], [117.6215119, 39.07176], [117.6223308, 39.0716855], [117.6230717, 39.0716175], [117.6265622, 39.0713037], [117.6276773, 39.0712154], [117.6290359, 39.0711123], [117.6297028, 39.0710685]]}, "properties": {"highway": "primary", "lanes": "2", "motorroad": "yes", "name": "北大街", "name:en": "Bei Avenue", "oneway": "yes", "osm_id": "way/107185814", "category": "highway:primary", "in_campus": false}}, {"type": "Feature", "id": "way/107186370", "geometry": {"type": "LineString", "coordinates": [[117.6330113, 39.0708684], [117.6377088, 39.0705919], [117.643986, 39.0702998], [117.6527754, 39.0698441], [117.6554562, 39.0696722], [117.6580977, 39.0694602], [117.6588089, 39.0693909], [117.6596648, 39.0693097], [117.6616379, 39.0690937], [117.6627798, 39.0689555], [117.6638695, 39.0688158], [117.6649857, 39.0686661], [117.6658252, 39.0685465], [117.6674935, 39.068288], [117.6689432, 39.0680527], [117.670319, 39.0678177], [117.671722, 39.0675626], [117.6731148, 39.0672836], [117.6747338, 39.0669515], [117.6756328, 39.0667586], [117.6769315, 39.0664617], [117.6782923, 39.0661341], [117.6797272, 39.0657784], [117.6808149, 39.0655001], [117.682514, 39.065061]]}, "properties": {"bridge": "viaduct", "highway": "primary", "lanes": "2", "layer": "1", "motorroad": "yes", "name": "第九大街", "name:en": "9st Street", "oneway": "yes", "osm_id": "way/107186370", "category": "highway:primary", "in_campus": false}}, {"type": "Feature", "id": "way/122707341", "geometry": {"type": "LineString", "coordinates": [[117.6299043, 39.0640022], [117.6298803, 39.0639178], [117.629822, 39.0637969], [117.6294181, 39.0631109], [117.6292734, 39.0628414], [117.6291941, 39.0626321], [117.6291335, 39.0624321], [117.6291004, 39.062265], [117.6290713, 39.0620312], [117.6290618, 39.0618736], [117.6290726, 39.0617255], [117.6290899, 39.0615147], [117.6291323, 39.0613161], [117.6292029, 39.0610873], [117.629412, 39.0605138], [117.6294254, 39.060471], [117.6296609, 39.0598213], [117.6300856, 39.0586404], [117.6304664, 39.0577025], [117.6305692, 39.0574056]]}, "properties": {"alt_name": "威海路", "highway": "tertiary", "name": "威海路", "oneway": "yes", "osm_id": "way/122707341", "category": "highway:tertiary", "in_campus": false}}, {"type": "Feature", "id": "way/184057521", "geometry": {"type": "LineString", "coordinates": [[117.6525412, 39.0661796], [117.6470306, 39.065528], [117.6445144, 39.065237], [117.642693, 39.0650131]]}, "properties": {"highway": "secondary", "lanes": "3", "name": "云山道", "oneway": "yes", "osm_id": "way/184057521", "category": "highway:secondary", "in_campus": false}}, {"type": "Feature", "id": "way/410146164", "geometry": {"type": "Polygon", "coordinates": [[[117.6398206, 39.0643555], [117.6405743, 39.0644451], [117.6405985, 39.064322], [117.6398448, 39.0642325], [117.6398206, 39.0643555]]]}, "properties": {"building": "yes", "osm_id": "way/410146164", "category": "building:yes", "in_campus": false}}, {"type": "Feature", "id": "way/461308087", "geometry": {"type": "LineString", "coordinates": [[117.6367848, 39.0642366], [117.6368601, 39.0642188], [117.6369179, 39.0642017], [117.6369599, 39.0641835], [117.6369926, 39.0641654], [117.6370253, 39.0641382], [117.6370533, 39.0641074], [117.637072, 39.0640555], [117.6373365, 39.061206], [117.6373394, 39.061168], [117.6377629, 39.0574015], [117.6377676, 39.0573653], [117.6377708, 39.0573517], [117.6377923, 39.0572169]]}, "properties": {"highway": "tertiary", "name": "谐海路", "oneway": "yes", "osm_id": "way/461308087", "category": "highway:tertiary", "in_campus": false}}, {"type": "Feature", "id": "way/461308089", "geometry": {"type": "LineString", "coordinates": [[117.6335122, 39.0640929], [117.6335189, 39.0640368], [117.6338589, 39.0609093], [117.633863, 39.0608722]]}, "properties": {"highway": "residential", "name": "靖海路", "oneway": "yes", "osm_id": "way/461308089", "category": "highway:residential", "in_campus": false}}, {"type": "Feature", "id": "way/477290654", "geometry": {"type": "LineString", "coordinates": [[117.6258249, 39.0719702], [117.6286128, 39.0717691], [117.6310453, 39.0715839], [117.6312678, 39.0715898], [117.6315127, 39.0716179], [117.6317695, 39.0716806], [117.6319701, 39.0717514], [117.632183, 39.0718607], [117.632354, 39.071999], [117.6324915, 39.0721147], [117.632603, 39.0722446], [117.6327038, 39.0723902], [117.6327674, 39.0725226], [117.6328072, 39.0726736], [117.6328227, 39.0728717], [117.6328563, 39.0746149], [117.6327574, 39.0768361], [117.63276, 39.076921]]}, "properties": {"highway": "tertiary", "osm_id": "way/477290654", "category": "highway:tertiary", "in_campus": false}}, {"type": "Feature", "id": "way/477290658", "geometry": {"type": "Polygon", "coordinates": [[[117.6355307, 39.0853714], [117.6585784, 39.0787821], [117.6653161, 39.0770164], [117.6700368, 39.0718524], [117.6663032, 39.0690203], [117.6567331, 39.0701532], [117.6341574, 39.0712793], [117.6353612, 39.0749175], [117.6355307, 39.0853714]]]}, "properties": {"landuse": "industrial", "osm_id": "way/477290658", "category": "landuse:industrial", "in_campus": false}}, {"type": "Feature", "id": "way/477290670", "geometry": {"type": "LineString", "coordinates": [[117.6307631, 39.0770109], [117.6307661, 39.0769234], [117.6308705, 39.074965], [117.6309533, 39.073523], [117.6310163, 39.0724348], [117.6310453, 39.0715839]]}, "properties": {"highway": "residential", "osm_id": "way/477290670", "category": "highway:residential", "in_campus": false}}, {"type": "Feature", "id": "way/553121641", "geometry": {"type": "LineString", "coordinates": [[117.6373816, 39.0708969], [117.6374352, 39.0707114], [117.6374848, 39.0705396], [117.6393876, 39.0704452], [117.6396552, 39.070432], [117.6428814, 39.070272], [117.6429861, 39.0702662], [117.6439456, 39.0702054], [117.6520662, 39.069786], [117.6521985, 39.0697804], [117.6533126, 39.0697053]]}, "properties": {"highway": "tertiary", "name": "庐山道", "oneway": "yes", "osm_id": "way/553121641", "category": "highway:tertiary", "in_campus": false}}, {"type": "Feature", "id": "way/553121652", "geometry": {"type": "LineString", "coordinates": [[117.6339117, 39.0710934], [117.6339439, 39.0711871], [117.6347967, 39.0726739], [117.6348397, 39.0727759], [117.6350221, 39.0734256], [117.635124, 39.0738462], [117.6352152, 39.0742752], [117.6352742, 39.0752747], [117.6352119, 39.0765404], [117.6351964, 39.076853], [117.6350704, 39.078981], [117.6351482, 39.0789872], [117.6365644, 39.0787436], [117.6365966, 39.0786728], [117.6366813, 39.0769525], [117.6366933, 39.0767096], [117.6366997, 39.0765787], [117.636786, 39.0748287], [117.6368277, 39.0739818], [117.6368809, 39.0729029], [117.6368916, 39.0725531], [117.6368889, 39.0724303], [117.6369399, 39.0721616], [117.6370069, 39.0718326], [117.637133, 39.071462], [117.6373816, 39.0708969]]}, "properties": {"highway": "tertiary", "name": "蒿山道", "oneway": "yes", "osm_id": "way/553121652", "category": "highway:tertiary", "in_campus": false}}, {"type": "Feature", "id": "way/732104714", "geometry": {"type": "LineString", "coordinates": [[117.6293383, 39.0640683], [117.6297281, 39.0640197]]}, "properties": {"bridge": "yes", "highway": "secondary", "lanes": "3", "layer": "1", "name": "云山道", "oneway": "yes", "osm_id": "way/732104714", "category": "highway:secondary", "in_campus": false}}, {"type": "Feature", "id": "way/732104715", "geometry": {"type": "LineString", "coordinates": [[117.6297575, 39.0641027], [117.629372, 39.0641487]]}, "properties": {"bridge": "yes", "highway": "secondary", "lanes": "3", "layer": "1", "name": "云山道", "oneway": "yes", "osm_id": "way/732104715", "category": "highway:secondary", "in_campus": false}}, {"type": "Feature", "id": "way/732104717", "geometry": {"type": "LineString", "coordinates": [[117.6427325, 39.0649376], [117.6445211, 39.0651751], [117.6470394, 39.0654758], [117.6506572, 39.0659028], [117.652552, 39.0661264]]}, "properties": {"highway": "secondary", "lanes": "3", "name": "云山道", "oneway": "yes", "osm_id": "way/732104717", "category": "highway:secondary", "in_campus": false}}, {"type": "Feature", "id": "way/872771436", "geometry": {"type": "Polygon", "coordinates": [[[117.6274403, 39.0640569], [117.6271665, 39.0624533], [117.6270107, 39.0617798], [117.6268804, 39.0614265], [117.6266539, 39.0610637], [117.626208, 39.0605581], [117.6255992, 39.0601239], [117.6243817, 39.0598436], [117.6241694, 39.0598106], [117.6241765, 39.0596897], [117.6244855, 39.0591326], [117.6248631, 39.0586948], [117.6251745, 39.058453], [117.6257549, 39.0581452], [117.6292234, 39.0640151], [117.6276803, 39.0641855], [117.6275179, 39.064128], [117.6274403, 39.0640569]]]}, "properties": {"leisure": "park", "osm_id": "way/872771436", "category": "leisure:park", "in_campus": false}}, {"type": "Feature", "id": "way/872771437", "geometry": {"type": "Polygon", "coordinates": [[[117.6276007, 39.064874], [117.6275776, 39.0647674], [117.6275686, 39.0646404], [117.6276319, 39.0645281], [117.6277864, 39.0644383], [117.6293791, 39.0642514], [117.6329537, 39.0704176], [117.6314601, 39.0704891], [117.6287137, 39.0656969], [117.6282395, 39.0648175], [117.6281687, 39.0647791], [117.6278525, 39.0648376], [117.6276007, 39.064874]]]}, "properties": {"leisure": "park", "osm_id": "way/872771437", "category": "leisure:park", "in_campus": false}}, {"type": "Feature", "id": "way/872771439", "geometry": {"type": "Polygon", "coordinates": [[[117.6430771, 39.0700908], [117.643034, 39.0699186], [117.6432553, 39.0699058], [117.6486723, 39.0695933], [117.648586, 39.0698755], [117.6432558, 39.0702056], [117.6430771, 39.0700908]]]}, "properties": {"leisure": "park", "osm_id": "way/872771439", "category": "leisure:park", "in_campus": false}}, {"type": "Feature", "id": "way/886453255", "geometry": {"type": "LineString", "coordinates": [[117.6344147, 39.0641437], [117.6335954, 39.0640977], [117.6335122, 39.0640929], [117.6318627, 39.0639981], [117.6314676, 39.0639869], [117.6310784, 39.0639853], [117.6307808, 39.0639965], [117.6306065, 39.0640066], [117.6303765, 39.0640243], [117.6300511, 39.0640596]]}, "properties": {"highway": "secondary", "lanes": "3", "name": "云山道", "oneway": "yes", "osm_id": "way/886453255", "category": "highway:secondary", "in_campus": false}}, {"type": "Feature", "id": "way/886453257", "geometry": {"type": "LineString", "coordinates": [[117.6424253, 39.0648051], [117.6421043, 39.0608734], [117.6420938, 39.0604706], [117.6421074, 39.0602107], [117.642127, 39.0600631], [117.642156, 39.0599034], [117.6421874, 39.0597718], [117.6422316, 39.0596371], [117.6422822, 39.059509], [117.6423482, 39.0593472], [117.6423761, 39.0592911], [117.6424023, 39.0592444], [117.6424316, 39.0591978], [117.6424596, 39.0591628]]}, "properties": {"highway": "tertiary", "name": "厦门路", "oneway": "yes", "osm_id": "way/886453257", "category": "highway:tertiary", "in_campus": false}}, {"type": "Feature", "id": "way/1226200133", "geometry": {"type": "LineString", "coordinates": [[117.6533493, 39.0700622], [117.6521324, 39.0701524], [117.652011, 39.0701564], [117.64732, 39.0703791], [117.6430149, 39.070584], [117.642908, 39.0705867], [117.6373816, 39.0708969]]}, "properties": {"highway": "tertiary", "name": "庐山道", "oneway": "yes", "osm_id": "way/1226200133", "category": "highway:tertiary", "in_campus": false}}, {"type": "Feature", "id": "way/1226200134", "geometry": {"type": "LineString", "coordinates": [[117.6373816, 39.0708969], [117.6339117, 39.0710934]]}, "properties": {"highway": "tertiary", "osm_id": "way/1226200134", "category": "highway:tertiary", "in_campus": false}}, {"type": "Feature", "id": "way/1226200135", "geometry": {"type": "LineString", "coordinates": [[117.6551427, 39.0697609], [117.6521696, 39.0699384], [117.6520411, 39.0699455], [117.6429999, 39.0704183], [117.6428893, 39.0704235], [117.6374352, 39.0707114]]}, "properties": {"highway": "tertiary", "name": "庐山道", "osm_id": "way/1226200135", "category": "highway:tertiary", "in_campus": false}}, {"type": "Feature", "id": "way/1226200136", "geometry": {"type": "Polygon", "coordinates": [[[117.6370739, 39.0707299], [117.6372324, 39.070978], [117.6369502, 39.0715344], [117.634558, 39.0717605], [117.6340991, 39.0710223], [117.6340671, 39.0708871], [117.6370739, 39.0707299]]]}, "properties": {"amenity": "driving_school", "name": "天津市第一机动车驾驶员培训学校", "osm_id": "way/1226200136", "category": "amenity:driving_school", "in_campus": false}}, {"type": "Feature", "id": "way/1226200137", "geometry": {"type": "LineString", "coordinates": [[117.6374352, 39.0707114], [117.6370739, 39.0707299]]}, "properties": {"highway": "service", "osm_id": "way/1226200137", "category": "highway:service", "in_campus": false}}, {"type": "Feature", "id": "way/1226200138", "geometry": {"type": "LineString", "coordinates": [[117.6330225, 39.0710178], [117.6313624, 39.0711341], [117.6297265, 39.0712499]]}, "properties": {"highway": "primary", "lanes": "2", "motorroad": "yes", "name": "第九大街", "name:en": "9st Street", "oneway": "yes", "osm_id": "way/1226200138", "category": "highway:primary", "in_campus": false}}, {"type": "Feature", "id": "way/1226200139", "geometry": {"type": "LineString", "coordinates": [[117.6297028, 39.0710685], [117.6309266, 39.0709949], [117.6330113, 39.0708684]]}, "properties": {"highway": "primary", "lanes": "2", "motorroad": "yes", "name": "第九大街", "name:en": "9st Street", "oneway": "yes", "osm_id": "way/1226200139", "category": "highway:primary", "in_campus": false}}, {"type": "Feature", "id": "way/1425739110", "geometry": {"type": "LineString", "coordinates": [[117.6378608, 39.0572334], [117.637849, 39.0573609], [117.6378432, 39.0574132], [117.637425, 39.0611724], [117.6374221, 39.0612108], [117.6371426, 39.0640664], [117.6371457, 39.0641081], [117.6371592, 39.0641483], [117.6371875, 39.0641847], [117.6372329, 39.0642224], [117.6372849, 39.0642465], [117.637352, 39.064269]]}, "properties": {"highway": "tertiary", "name": "谐海路", "oneway": "yes", "osm_id": "way/1425739110", "category": "highway:tertiary", "in_campus": false}}, {"type": "Feature", "id": "way/1425806620", "geometry": {"type": "LineString", "coordinates": [[117.6344751, 39.0652068], [117.6344147, 39.0641437], [117.6344177, 39.0640904]]}, "properties": {"highway": "service", "oneway": "no", "osm_id": "way/1425806620", "category": "highway:service", "in_campus": true}}, {"type": "Feature", "id": "way/1425806621", "geometry": {"type": "LineString", "coordinates": [[117.6306499, 39.0574235], [117.630542, 39.057705], [117.6302132, 39.0586571], [117.6297912, 39.059817], [117.6295386, 39.0604854], [117.6295254, 39.060532], [117.6293075, 39.0611126], [117.6292518, 39.0613192], [117.629215, 39.0615154], [117.6291862, 39.0617446], [117.6291808, 39.0618797], [117.6291876, 39.0620352], [117.6292194, 39.062267], [117.6292578, 39.0624299], [117.6293185, 39.0626278], [117.6294031, 39.0628392], [117.629548, 39.0631086], [117.629959, 39.0638116], [117.6300043, 39.0639041], [117.630038, 39.0639857], [117.6300511, 39.0640596]]}, "properties": {"alt_name": "威海路", "highway": "tertiary", "name": "威海路", "oneway": "yes", "osm_id": "way/1425806621", "category": "highway:tertiary", "in_campus": false}}, {"type": "Feature", "id": "way/1425806622", "geometry": {"type": "LineString", "coordinates": [[117.6339422, 39.0608789], [117.6339382, 39.0609155], [117.6336007, 39.0640417], [117.6335954, 39.0640977]]}, "properties": {"highway": "residential", "name": "靖海路", "oneway": "yes", "osm_id": "way/1425806622", "category": "highway:residential", "in_campus": false}}, {"type": "Feature", "id": "way/1425806626", "geometry": {"type": "LineString", "coordinates": [[117.6425403, 39.0651291], [117.6426765, 39.066732], [117.6428313, 39.0685542], [117.6429861, 39.0702662], [117.6429999, 39.0704183], [117.6430149, 39.070584], [117.6430808, 39.0713131], [117.6432683, 39.0736515], [117.6432461, 39.0738016], [117.6432297, 39.0741638], [117.6432175, 39.0748723], [117.6432025, 39.0756007], [117.6431985, 39.0757755]]}, "properties": {"highway": "tertiary", "name": "厦门路", "oneway": "yes", "osm_id": "way/1425806626", "category": "highway:tertiary", "in_campus": false}}, {"type": "Feature", "id": "way/1425806633", "geometry": {"type": "LineString", "coordinates": [[117.6299043, 39.0640022], [117.630038, 39.0639857], [117.6303791, 39.0639581], [117.6307044, 39.0639401], [117.6309087, 39.0639333], [117.6310966, 39.0639256], [117.6313848, 39.0639274], [117.6317487, 39.0639417], [117.632069, 39.0639561], [117.6335189, 39.0640368], [117.6336007, 39.0640417], [117.6344177, 39.0640904], [117.6367848, 39.0642366]]}, "properties": {"highway": "secondary", "lanes": "3", "name": "云山道", "oneway": "yes", "osm_id": "way/1425806633", "category": "highway:secondary", "in_campus": false}}, {"type": "Feature", "id": "way/1425915251", "geometry": {"type": "LineString", "coordinates": [[117.629372, 39.0641487], [117.6283809, 39.0642632], [117.6278865, 39.0643334], [117.6274379, 39.0644078]]}, "properties": {"highway": "secondary", "lanes": "3", "name": "云山道", "oneway": "yes", "osm_id": "way/1425915251", "category": "highway:secondary", "in_campus": false}}, {"type": "Feature", "id": "way/1425915253", "geometry": {"type": "LineString", "coordinates": [[117.6273267, 39.0643195], [117.6274147, 39.0643045], [117.6275996, 39.0642751], [117.6278077, 39.0642463], [117.6280273, 39.0642148], [117.6293383, 39.0640683]]}, "properties": {"highway": "secondary", "lanes": "3", "name": "云山道", "oneway": "yes", "osm_id": "way/1425915253", "category": "highway:secondary", "in_campus": false}}, {"type": "Feature", "id": "way/1426390742", "geometry": {"type": "LineString", "coordinates": [[117.642693, 39.0650131], [117.6425287, 39.0649929], [117.6424988, 39.0649888], [117.6424424, 39.0649807]]}, "properties": {"highway": "secondary", "lanes": "3", "name": "云山道", "oneway": "yes", "osm_id": "way/1426390742", "category": "highway:secondary", "in_campus": false}}, {"type": "Feature", "id": "way/1426390743", "geometry": {"type": "LineString", "coordinates": [[117.6367848, 39.0642366], [117.637352, 39.064269], [117.6377275, 39.0642999], [117.6380267, 39.0643363], [117.6384552, 39.0643917], [117.6390598, 39.0644703], [117.642433, 39.0648973], [117.6424729, 39.0649033], [117.6425209, 39.0649095], [117.6427325, 39.0649376]]}, "properties": {"highway": "secondary", "lanes": "3", "name": "云山道", "oneway": "yes", "osm_id": "way/1426390743", "category": "highway:secondary", "in_campus": false}}, {"type": "Feature", "id": "way/1426390744", "geometry": {"type": "Polygon", "coordinates": [[[117.6425565, 39.0715261], [117.6427971, 39.0715134], [117.6427504, 39.0709514], [117.6425589, 39.0709605], [117.6425986, 39.0714227], [117.6425472, 39.0714264], [117.6425565, 39.0715261]]]}, "properties": {"building": "yes", "name": "汉庭酒店", "osm_id": "way/1426390744", "category": "building:yes", "in_campus": false}}, {"type": "Feature", "id": "way/1426464668", "geometry": {"type": "LineString", "coordinates": [[117.6299156, 39.0640787], [117.6299043, 39.0640022]]}, "properties": {"alt_name": "威海路", "highway": "tertiary", "name": "威海路", "oneway": "yes", "osm_id": "way/1426464668", "category": "highway:tertiary", "in_campus": false}}, {"type": "Feature", "id": "way/1429004905", "geometry": {"type": "LineString", "coordinates": [[117.6425383, 39.0592096], [117.6425045, 39.059258], [117.6424676, 39.0593136], [117.6423788, 39.0594628], [117.6423226, 39.0595868], [117.6422823, 39.0596963], [117.6422431, 39.0598222], [117.6422195, 39.0599311], [117.642198, 39.0600428], [117.6421841, 39.0601616], [117.6421795, 39.0602779], [117.6421736, 39.0605192], [117.6421889, 39.060909], [117.6422987, 39.0624621], [117.6424369, 39.0639236], [117.6425209, 39.0649095], [117.6425249, 39.0649523], [117.6425265, 39.0649696], [117.6425287, 39.0649929], [117.6425403, 39.0651291]]}, "properties": {"highway": "tertiary", "name": "厦门路", "oneway": "yes", "osm_id": "way/1429004905", "category": "highway:tertiary", "in_campus": false}}, {"type": "Feature", "id": "way/1497675324", "geometry": {"type": "LineString", "coordinates": [[117.6300511, 39.0640596], [117.6299156, 39.0640787], [117.6297575, 39.0641027]]}, "properties": {"highway": "secondary", "lanes": "3", "name": "云山道", "oneway": "yes", "osm_id": "way/1497675324", "category": "highway:secondary", "in_campus": false}}, {"type": "Feature", "id": "way/1497675342", "geometry": {"type": "LineString", "coordinates": [[117.642693, 39.0650131], [117.6426452, 39.0650009], [117.6426025, 39.0649862], [117.6425634, 39.0649715], [117.6425444, 39.064962], [117.6425249, 39.0649523], [117.6424994, 39.064931], [117.6424729, 39.0649033], [117.6424591, 39.0648804], [117.6424401, 39.0648445], [117.6424253, 39.0648051]]}, "properties": {"access": "no", "highway": "secondary_link", "oneway": "yes", "service": "bus", "osm_id": "way/1497675342", "category": "highway:secondary_link", "in_campus": false}}, {"type": "Feature", "id": "way/1497675343", "geometry": {"type": "LineString", "coordinates": [[117.642447, 39.0651134], [117.6424424, 39.0649807], [117.642433, 39.0648973], [117.6424253, 39.0648051]]}, "properties": {"highway": "tertiary", "name": "厦门路", "oneway": "yes", "osm_id": "way/1497675343", "category": "highway:tertiary", "in_campus": false}}, {"type": "Feature", "id": "way/1497675344", "geometry": {"type": "LineString", "coordinates": [[117.642693, 39.0650131], [117.6426559, 39.0650175], [117.6426322, 39.065023], [117.6426049, 39.0650332], [117.6425835, 39.065047], [117.6425693, 39.0650626], [117.6425575, 39.0650792], [117.6425468, 39.0651013], [117.6425403, 39.0651291]]}, "properties": {"access": "no", "highway": "secondary_link", "oneway": "yes", "service": "bus", "osm_id": "way/1497675344", "category": "highway:secondary_link", "in_campus": false}}, {"type": "Feature", "id": "way/1497675345", "geometry": {"type": "LineString", "coordinates": [[117.642447, 39.0651134], [117.642452, 39.0650718], [117.6424591, 39.0650497], [117.6424697, 39.0650286], [117.6424828, 39.0650083], [117.6424988, 39.0649888], [117.6425265, 39.0649696], [117.6425444, 39.064962], [117.6425752, 39.0649531], [117.6426132, 39.0649457], [117.6426476, 39.0649411], [117.6426867, 39.0649393], [117.6427325, 39.0649376]]}, "properties": {"access": "no", "highway": "tertiary_link", "oneway": "yes", "service": "bus", "osm_id": "way/1497675345", "category": "highway:tertiary_link", "in_campus": false}}, {"type": "Feature", "id": "way/1497675348", "geometry": {"type": "Polygon", "coordinates": [[[117.6367317, 39.0703076], [117.6423924, 39.0700489], [117.6421133, 39.0656283], [117.6421074, 39.065543], [117.642071, 39.0655242], [117.6415821, 39.065526], [117.6414119, 39.0653473], [117.6409752, 39.0652481], [117.6407541, 39.0652582], [117.6404921, 39.0652376], [117.6404764, 39.0650646], [117.6378259, 39.0648913], [117.6370358, 39.064929], [117.637007, 39.0647305], [117.6358177, 39.0646157], [117.6358076, 39.0645889], [117.6355046, 39.0645614], [117.635505, 39.0645133], [117.6352745, 39.0644906], [117.6346375, 39.0644468], [117.6342414, 39.0644196], [117.6311503, 39.064235], [117.6307874, 39.064682], [117.631313, 39.0656439], [117.6312254, 39.0657022], [117.6309876, 39.0657022], [117.6310002, 39.0657993], [117.6319262, 39.0672956], [117.6339105, 39.0705226], [117.6353647, 39.0704508], [117.6367317, 39.0703076]]]}, "properties": {"amenity": "university", "education": "university", "name": "天津滨海职业学院", "osm_id": "way/1497675348", "category": "amenity:university", "in_campus": true}}, {"type": "Feature", "id": "way/1497675350", "geometry": {"type": "Polygon", "coordinates": [[[117.643233, 39.069546], [117.6432553, 39.0699058], [117.6486723, 39.0695933], [117.6487237, 39.0693346], [117.6487346, 39.069047], [117.6497139, 39.0689726], [117.6495583, 39.0688019], [117.6502611, 39.0683854], [117.6511247, 39.067794], [117.6514466, 39.0676399], [117.6515411, 39.0676177], [117.65148, 39.0670593], [117.6514413, 39.0668978], [117.6513928, 39.0661554], [117.6488943, 39.0658512], [117.6487294, 39.0666093], [117.6482595, 39.0665558], [117.6482354, 39.0666525], [117.6481015, 39.0672545], [117.6443932, 39.0667879], [117.6429867, 39.0666392], [117.643233, 39.069546]]]}, "properties": {"landuse": "residential", "name": "贻成豪庭", "osm_id": "way/1497675350", "category": "landuse:residential", "in_campus": false}}, {"type": "Feature", "id": "way/1497675351", "geometry": {"type": "Polygon", "coordinates": [[[117.6428865, 39.0648703], [117.6427822, 39.0647083], [117.6427158, 39.0644947], [117.6424787, 39.0615492], [117.6424692, 39.0609232], [117.6439392, 39.0610558], [117.6442733, 39.0600698], [117.6460053, 39.0603384], [117.6456488, 39.0619458], [117.6450583, 39.0648556], [117.6450014, 39.0651207], [117.6428865, 39.0648703]]]}, "properties": {"alt_name": "融科贻锦台", "landuse": "residential", "name": "贻锦台", "osm_id": "way/1497675351", "category": "landuse:residential", "in_campus": false}}, {"type": "Feature", "id": "way/1497675352", "geometry": {"type": "Polygon", "coordinates": [[[117.6376501, 39.0641867], [117.6382106, 39.0642299], [117.6408135, 39.0645797], [117.642065, 39.0647157], [117.6418898, 39.0619562], [117.6419273, 39.0603334], [117.6421651, 39.0591188], [117.6419774, 39.0589633], [117.6416395, 39.0588661], [117.6415122, 39.0587938], [117.6412846, 39.0586686], [117.6407772, 39.0584071], [117.6403125, 39.0582193], [117.6400279, 39.0581162], [117.6398525, 39.0585065], [117.6378134, 39.0584587], [117.6373219, 39.0639192], [117.6373879, 39.0640494], [117.6376501, 39.0641867]]]}, "properties": {"alt_name": "万通上北新新家园", "landuse": "residential", "name": "广厦富城", "osm_id": "way/1497675352", "category": "landuse:residential", "in_campus": false}}, {"type": "Feature", "id": "way/1497675353", "geometry": {"type": "Polygon", "coordinates": [[[117.6339879, 39.0639773], [117.633868, 39.0639358], [117.6337928, 39.063891], [117.6337389, 39.0638009], [117.6337264, 39.0637006], [117.6340095, 39.0611674], [117.6340854, 39.0610717], [117.6342182, 39.0610275], [117.6370349, 39.0612558], [117.6371393, 39.0613515], [117.6372151, 39.0614841], [117.636997, 39.0638774], [117.6369686, 39.0640099], [117.6368548, 39.0641204], [117.636722, 39.0641498], [117.6339879, 39.0639773]]]}, "properties": {"alt_name": "盛星东海岸", "landuse": "residential", "name": "东海岸家园", "osm_id": "way/1497675353", "category": "landuse:residential", "in_campus": false}}, {"type": "Feature", "id": "way/1497706112", "geometry": {"type": "Polygon", "coordinates": [[[117.630394, 39.0638399], [117.6302313, 39.0638291], [117.6301012, 39.063766], [117.629963, 39.0636145], [117.6295565, 39.0628379], [117.6293532, 39.0622697], [117.6292638, 39.0617205], [117.6296053, 39.0606156], [117.6336545, 39.0609502], [117.6337358, 39.0609881], [117.6337439, 39.0610702], [117.633378, 39.0638354], [117.6333281, 39.0639111], [117.6332214, 39.0639481], [117.6330675, 39.063946], [117.6313032, 39.0638545], [117.630394, 39.0638399]]]}, "properties": {"alt_name": "桃源观邸", "landuse": "residential", "name": "桃源居", "osm_id": "way/1497706112", "category": "landuse:residential", "in_campus": false}}, {"type": "Feature", "id": "way/1497706114", "geometry": {"type": "Polygon", "coordinates": [[[117.6379082, 39.0688489], [117.6378755, 39.0689069], [117.6378241, 39.0689686], [117.6377634, 39.0690302], [117.6377027, 39.0690737], [117.6376233, 39.06911], [117.6375159, 39.069139], [117.6374272, 39.0691462], [117.6373338, 39.0691426], [117.6372521, 39.06913], [117.6371657, 39.0691063], [117.6370863, 39.0690628], [117.6370116, 39.0690121], [117.6369695, 39.0689722], [117.6368855, 39.0689794], [117.6367827, 39.0677503], [117.6368715, 39.0677394], [117.6369088, 39.0676959], [117.6369637, 39.0676507], [117.6370349, 39.0676053], [117.6371143, 39.0675726], [117.6372124, 39.0675436], [117.6373151, 39.0675291], [117.6374132, 39.0675364], [117.6374972, 39.0675545], [117.6375813, 39.0675871], [117.6376654, 39.0676234], [117.6377167, 39.0676633], [117.6377821, 39.0677322], [117.6378195, 39.0677938], [117.6378522, 39.0678591], [117.6378708, 39.0679316], [117.6379362, 39.0687111], [117.6379316, 39.0687764], [117.6379082, 39.0688489]]]}, "properties": {"leisure": "track", "sport": "running", "osm_id": "way/1497706114", "category": "leisure:track", "in_campus": true}}, {"type": "Feature", "id": "way/1497706115", "geometry": {"type": "Polygon", "coordinates": [[[117.6378109, 39.0687093], [117.6378039, 39.0687917], [117.6377756, 39.0688632], [117.6377366, 39.0689126], [117.6376871, 39.0689593], [117.6376198, 39.0690006], [117.6375455, 39.069028], [117.6374606, 39.0690473], [117.6373862, 39.06905], [117.6373048, 39.069039], [117.637227, 39.0690171], [117.6371633, 39.0689841], [117.6371102, 39.0689511], [117.6370642, 39.0689071], [117.6370182, 39.0688522], [117.6369969, 39.0687917], [117.6369261, 39.0679509], [117.6369297, 39.0678795], [117.6369545, 39.0678272], [117.6369934, 39.0677668], [117.6370359, 39.0677256], [117.6370925, 39.0676871], [117.6371597, 39.0676569], [117.6372341, 39.0676349], [117.6373048, 39.0676267], [117.6373898, 39.0676267], [117.6374712, 39.0676431], [117.6375384, 39.0676679], [117.6376057, 39.0677063], [117.6376623, 39.0677503], [117.6377083, 39.0678108], [117.6377295, 39.067852], [117.6377431, 39.0679211], [117.6378109, 39.0687093]]]}, "properties": {"leisure": "track", "sport": "running", "osm_id": "way/1497706115", "category": "leisure:track", "in_campus": true}}, {"type": "Feature", "id": "way/1497706116", "geometry": {"type": "Polygon", "coordinates": [[[117.6370171, 39.068793], [117.6369475, 39.0679246], [117.6377115, 39.0678877], [117.637781, 39.0687561], [117.6370171, 39.068793]]]}, "properties": {"leisure": "pitch", "name": "足球场", "osm_id": "way/1497706116", "category": "leisure:pitch", "in_campus": true}}, {"type": "Feature", "id": "way/1497706117", "geometry": {"type": "Polygon", "coordinates": [[[117.6372851, 39.0689457], [117.6370491, 39.0688207], [117.6373388, 39.0688041], [117.6373403, 39.0688252], [117.6373382, 39.0688543], [117.63733, 39.0688804], [117.6373165, 39.0689058], [117.637303, 39.068926], [117.6372851, 39.0689457]]]}, "properties": {"leisure": "pitch", "name": "投掷场地", "osm_id": "way/1497706117", "category": "leisure:pitch", "in_campus": true}}, {"type": "Feature", "id": "way/1497706118", "geometry": {"type": "Polygon", "coordinates": [[[117.6379449, 39.0688815], [117.6379695, 39.0688169], [117.6379757, 39.0687403], [117.6379665, 39.0686159], [117.6379018, 39.0679103], [117.6378864, 39.0678146], [117.6378555, 39.067762], [117.6378062, 39.0676854], [117.637757, 39.0676376], [117.6376922, 39.0675897], [117.6376121, 39.0675467], [117.637532, 39.0675203], [117.6374088, 39.0674988], [117.6372794, 39.067494], [117.6371654, 39.067506], [117.6370637, 39.0675371], [117.6369682, 39.0675993], [117.6368727, 39.0676758], [117.6368419, 39.0677189], [117.6367987, 39.0676974], [117.636771, 39.0677332], [117.6366971, 39.0677045], [117.6367279, 39.0676447], [117.6367803, 39.0675921], [117.6368696, 39.0675227], [117.6369774, 39.0674629], [117.6370791, 39.0674247], [117.6371993, 39.0674031], [117.6373287, 39.0673936], [117.6374458, 39.0673983], [117.6375567, 39.0674199], [117.6376368, 39.0674462], [117.6377539, 39.0674964], [117.6378432, 39.0675682], [117.6379202, 39.0676352], [117.6379757, 39.0677165], [117.638025, 39.0678241], [117.6380435, 39.067915], [117.6381174, 39.068714], [117.6381113, 39.068769], [117.6380866, 39.068848], [117.6380681, 39.0689006], [117.6380373, 39.0689604], [117.6380004, 39.0690202], [117.6379541, 39.0690704], [117.6378802, 39.0691374], [117.6378032, 39.0691805], [117.6377415, 39.0692092], [117.6376645, 39.0692379], [117.6375721, 39.0692618], [117.6374704, 39.0692738], [117.637378, 39.0692809], [117.6372486, 39.0692714], [117.6371315, 39.0692427], [117.6370298, 39.069202], [117.6369497, 39.0691565], [117.6368727, 39.0691015], [117.6367987, 39.0690369], [117.6368634, 39.0689963], [117.6369097, 39.069025], [117.6369539, 39.0689961], [117.6369999, 39.0690387], [117.6370459, 39.0690703], [117.637106, 39.0691088], [117.6371609, 39.0691335], [117.6372087, 39.0691528], [117.6372759, 39.0691679], [117.6373343, 39.0691761], [117.6373963, 39.0691816], [117.6374582, 39.0691761], [117.6375113, 39.0691693], [117.6375732, 39.0691541], [117.6376387, 39.0691377], [117.6377077, 39.0691115], [117.6377626, 39.0690799], [117.6378103, 39.0690456], [117.6378617, 39.0689948], [117.6379112, 39.0689439], [117.6379449, 39.0688815]]]}, "properties": {"leisure": "bleachers", "osm_id": "way/1497706118", "category": "leisure:bleachers", "in_campus": true}}, {"type": "Feature", "id": "way/1497706119", "geometry": {"type": "Polygon", "coordinates": [[[117.636708, 39.068965], [117.6368515, 39.0689573], [117.6367459, 39.0677754], [117.6366027, 39.0677831], [117.636708, 39.068965]]]}, "properties": {"building": "grandstand", "osm_id": "way/1497706119", "category": "building:grandstand", "in_campus": true}}, {"type": "Feature", "id": "way/1497706120", "geometry": {"type": "Polygon", "coordinates": [[[117.6368568, 39.0701919], [117.6370671, 39.0701816], [117.6370407, 39.0698573], [117.6368304, 39.0698676], [117.6368568, 39.0701919]]]}, "properties": {"leisure": "pitch", "name": "网球场", "osm_id": "way/1497706120", "category": "leisure:pitch", "in_campus": true}}, {"type": "Feature", "id": "way/1497706121", "geometry": {"type": "Polygon", "coordinates": [[[117.6368252, 39.0698302], [117.6370356, 39.0698199], [117.6370092, 39.0694955], [117.6367988, 39.0695058], [117.6368252, 39.0698302]]]}, "properties": {"leisure": "pitch", "name": "网球场", "osm_id": "way/1497706121", "category": "leisure:pitch", "in_campus": true}}, {"type": "Feature", "id": "way/1497706122", "geometry": {"type": "Polygon", "coordinates": [[[117.637057, 39.0698233], [117.6372673, 39.069813], [117.6372409, 39.0694887], [117.6370306, 39.069499], [117.637057, 39.0698233]]]}, "properties": {"leisure": "pitch", "name": "网球场", "osm_id": "way/1497706122", "category": "leisure:pitch", "in_campus": true}}, {"type": "Feature", "id": "way/1497706123", "geometry": {"type": "Polygon", "coordinates": [[[117.6370885, 39.0701851], [117.6372989, 39.0701748], [117.6372725, 39.0698504], [117.6370621, 39.0698608], [117.6370885, 39.0701851]]]}, "properties": {"leisure": "pitch", "name": "网球场", "osm_id": "way/1497706123", "category": "leisure:pitch", "in_campus": true}}, {"type": "Feature", "id": "way/1497706124", "geometry": {"type": "Polygon", "coordinates": [[[117.6373045, 39.0698124], [117.6375148, 39.0698021], [117.6374885, 39.0694778], [117.6372781, 39.0694881], [117.6373045, 39.0698124]]]}, "properties": {"leisure": "pitch", "name": "网球场", "osm_id": "way/1497706124", "category": "leisure:pitch", "in_campus": true}}, {"type": "Feature", "id": "way/1497706125", "geometry": {"type": "Polygon", "coordinates": [[[117.637336, 39.0701742], [117.6375464, 39.0701639], [117.63752, 39.0698396], [117.6373096, 39.0698499], [117.637336, 39.0701742]]]}, "properties": {"leisure": "pitch", "name": "网球场", "osm_id": "way/1497706125", "category": "leisure:pitch", "in_campus": true}}, {"type": "Feature", "id": "way/1497706126", "geometry": {"type": "Polygon", "coordinates": [[[117.6375614, 39.0697979], [117.6377717, 39.0697876], [117.6377453, 39.0694633], [117.6375349, 39.0694736], [117.6375614, 39.0697979]]]}, "properties": {"leisure": "pitch", "name": "网球场", "osm_id": "way/1497706126", "category": "leisure:pitch", "in_campus": true}}, {"type": "Feature", "id": "way/1497706127", "geometry": {"type": "Polygon", "coordinates": [[[117.6375929, 39.0701597], [117.6378032, 39.0701494], [117.6377768, 39.0698251], [117.6375665, 39.0698354], [117.6375929, 39.0701597]]]}, "properties": {"leisure": "pitch", "name": "网球场", "osm_id": "way/1497706127", "category": "leisure:pitch", "in_campus": true}}, {"type": "Feature", "id": "way/1497706128", "geometry": {"type": "Polygon", "coordinates": [[[117.6377995, 39.0697871], [117.6380099, 39.0697767], [117.6379835, 39.0694524], [117.6377731, 39.0694627], [117.6377995, 39.0697871]]]}, "properties": {"leisure": "pitch", "name": "网球场", "osm_id": "way/1497706128", "category": "leisure:pitch", "in_campus": true}}, {"type": "Feature", "id": "way/1497706129", "geometry": {"type": "Polygon", "coordinates": [[[117.6378311, 39.0701488], [117.6380414, 39.0701385], [117.638015, 39.0698142], [117.6378046, 39.0698245], [117.6378311, 39.0701488]]]}, "properties": {"leisure": "pitch", "name": "网球场", "osm_id": "way/1497706129", "category": "leisure:pitch", "in_campus": true}}, {"type": "Feature", "id": "way/1497708657", "geometry": {"type": "Polygon", "coordinates": [[[117.6343728, 39.0684617], [117.6343528, 39.0682854], [117.6344805, 39.0682767], [117.6345004, 39.068453], [117.6343728, 39.0684617]]]}, "properties": {"leisure": "pitch", "name": "排球场", "osm_id": "way/1497708657", "category": "leisure:pitch", "in_campus": true}}, {"type": "Feature", "id": "way/1497708658", "geometry": {"type": "Polygon", "coordinates": [[[117.634228, 39.068469], [117.634208, 39.0682926], [117.6343357, 39.0682839], [117.6343556, 39.0684603], [117.634228, 39.068469]]]}, "properties": {"leisure": "pitch", "name": "排球场", "osm_id": "way/1497708658", "category": "leisure:pitch", "in_campus": true}}, {"type": "Feature", "id": "way/1497708659", "geometry": {"type": "Polygon", "coordinates": [[[117.6345222, 39.0684545], [117.6345023, 39.0682781], [117.6346299, 39.0682694], [117.6346498, 39.0684458], [117.6345222, 39.0684545]]]}, "properties": {"leisure": "pitch", "name": "排球场", "osm_id": "way/1497708659", "category": "leisure:pitch", "in_campus": true}}, {"type": "Feature", "id": "way/1497708660", "geometry": {"type": "Polygon", "coordinates": [[[117.6342142, 39.0682422], [117.6344148, 39.0682329], [117.6343941, 39.0679627], [117.6341934, 39.067972], [117.6342142, 39.0682422]]]}, "properties": {"leisure": "pitch", "name": "篮球场", "osm_id": "way/1497708660", "category": "leisure:pitch", "in_campus": true}}, {"type": "Feature", "id": "way/1497708661", "geometry": {"type": "Polygon", "coordinates": [[[117.634416, 39.0682297], [117.6346167, 39.0682205], [117.634596, 39.0679503], [117.6343953, 39.0679595], [117.634416, 39.0682297]]]}, "properties": {"leisure": "pitch", "name": "篮球场", "osm_id": "way/1497708661", "category": "leisure:pitch", "in_campus": true}}, {"type": "Feature", "id": "way/1497708662", "geometry": {"type": "Polygon", "coordinates": [[[117.6343862, 39.0679244], [117.6345869, 39.0679151], [117.6345662, 39.0676449], [117.6343655, 39.0676542], [117.6343862, 39.0679244]]]}, "properties": {"leisure": "pitch", "name": "篮球场", "osm_id": "way/1497708662", "category": "leisure:pitch", "in_campus": true}}, {"type": "Feature", "id": "way/1497708663", "geometry": {"type": "Polygon", "coordinates": [[[117.6341844, 39.0679369], [117.634385, 39.0679276], [117.6343643, 39.0676574], [117.6341636, 39.0676667], [117.6341844, 39.0679369]]]}, "properties": {"leisure": "pitch", "name": "篮球场", "osm_id": "way/1497708663", "category": "leisure:pitch", "in_campus": true}}, {"type": "Feature", "id": "way/1497708664", "geometry": {"type": "Polygon", "coordinates": [[[117.6343629, 39.0676162], [117.6345635, 39.0676069], [117.6345428, 39.0673367], [117.6343421, 39.067346], [117.6343629, 39.0676162]]]}, "properties": {"leisure": "pitch", "name": "篮球场", "osm_id": "way/1497708664", "category": "leisure:pitch", "in_campus": true}}, {"type": "Feature", "id": "way/1497708665", "geometry": {"type": "Polygon", "coordinates": [[[117.634161, 39.0676287], [117.6343617, 39.0676194], [117.6343409, 39.0673492], [117.6341402, 39.0673585], [117.634161, 39.0676287]]]}, "properties": {"leisure": "pitch", "name": "篮球场", "osm_id": "way/1497708665", "category": "leisure:pitch", "in_campus": true}}, {"type": "Feature", "id": "way/1497708666", "geometry": {"type": "Polygon", "coordinates": [[[117.6410856, 39.0699118], [117.6411313, 39.0699178], [117.641193, 39.0699154], [117.6412537, 39.0699082], [117.6412117, 39.0698429], [117.6411837, 39.069774], [117.6411837, 39.0697269], [117.641207, 39.0696616], [117.6412817, 39.0696218], [117.6413985, 39.0696073], [117.6415479, 39.0696254], [117.6416647, 39.0695928], [117.6416927, 39.0695311], [117.6416787, 39.0694441], [117.6416086, 39.0693281], [117.6415573, 39.0692773], [117.6415526, 39.0692193], [117.6415853, 39.0691613], [117.6416367, 39.0691033], [117.6416133, 39.069009], [117.6415946, 39.068951], [117.641632, 39.0688749], [117.641702, 39.0688567], [117.6417114, 39.068806], [117.6416787, 39.0687697], [117.6416507, 39.0687117], [117.6416413, 39.0686609], [117.6416834, 39.0686247], [117.6417394, 39.0686029], [117.6418001, 39.0685957], [117.6418561, 39.0685993], [117.6418141, 39.0685413], [117.6417627, 39.0684253], [117.6417581, 39.068331], [117.6417441, 39.068215], [117.6417207, 39.0681135], [117.6417768, 39.0680699], [117.6418468, 39.0680446], [117.6418281, 39.0680083], [117.6417487, 39.0679648], [117.6416787, 39.0679104], [117.6416226, 39.0678597], [117.6415386, 39.0677581], [117.6414966, 39.0677291], [117.6414032, 39.0677037], [117.6413144, 39.067682], [117.641235, 39.0676457], [117.641165, 39.067595], [117.6411043, 39.0675478], [117.6410622, 39.0675297], [117.6409969, 39.0675297], [117.6409408, 39.0675877], [117.6408801, 39.0676602], [117.6407961, 39.0677255], [117.6407307, 39.0677654], [117.6406186, 39.0677944], [117.6405392, 39.0678089], [117.6404972, 39.0678343], [117.6404878, 39.067885], [117.6405205, 39.0679721], [117.6405719, 39.0680264], [117.640656, 39.0680845], [117.640754, 39.0681171], [117.6409455, 39.0681098], [117.6410856, 39.068128], [117.6412304, 39.068157], [117.6413611, 39.0681787], [117.6414078, 39.0682295], [117.6414312, 39.0682694], [117.6414592, 39.0683383], [117.6414265, 39.068447], [117.64145, 39.068482], [117.6414286, 39.0684966], [117.6413884, 39.0684945], [117.6413696, 39.0685486], [117.6413776, 39.0685778], [117.6413669, 39.0686111], [117.6413428, 39.0686173], [117.6413347, 39.0686757], [117.6413159, 39.0687236], [117.6412891, 39.0687652], [117.6412891, 39.0688006], [117.6413052, 39.0688214], [117.6413454, 39.0688381], [117.6413937, 39.0688693], [117.6414152, 39.0689089], [117.6414393, 39.0689422], [117.6414796, 39.0689609], [117.6414983, 39.0690005], [117.6415412, 39.0690963], [117.6415386, 39.0691442], [117.6415091, 39.0691879], [117.6414876, 39.0692442], [117.6414635, 39.0692921], [117.6414581, 39.0693254], [117.641434, 39.0693691], [117.6413723, 39.0693899], [117.6413052, 39.0693962], [117.641163, 39.0693941], [117.6410879, 39.069392], [117.6410155, 39.0693858], [117.6409458, 39.0693837], [117.6408519, 39.0693795], [117.6407768, 39.0693837], [117.640699, 39.0694066], [117.6406534, 39.0694462], [117.6406347, 39.0695003], [117.6406454, 39.0695524], [117.6406695, 39.0696086], [117.6407232, 39.0696481], [117.640817, 39.0696981], [117.640927, 39.0697585], [117.6409914, 39.0697898], [117.6410584, 39.0698376], [117.6410772, 39.0698835], [117.6410856, 39.0699118]]]}, "properties": {"natural": "water", "water": "lake", "osm_id": "way/1497708666", "category": "natural:water", "in_campus": true}}, {"type": "Feature", "id": "way/1497708669", "geometry": {"type": "Polygon", "coordinates": [[[117.6388027, 39.0688396], [117.6390119, 39.0688396], [117.6391862, 39.0688376], [117.6391916, 39.0688105], [117.6392587, 39.0688042], [117.6392935, 39.0687938], [117.6393043, 39.0687751], [117.6393043, 39.0687543], [117.6392828, 39.0687293], [117.6393364, 39.0687147], [117.6393782, 39.068707], [117.6394303, 39.0687105], [117.6394732, 39.0687147], [117.6394491, 39.0687418], [117.6394571, 39.0687751], [117.6394867, 39.0687876], [117.6395859, 39.0687876], [117.6395939, 39.0688188], [117.6397817, 39.0688042], [117.6399775, 39.0687792], [117.6399641, 39.0687064], [117.6401679, 39.0686939], [117.6401626, 39.068571], [117.639889, 39.0685835], [117.6398863, 39.0686085], [117.6394893, 39.0686272], [117.639488, 39.0686124], [117.6395175, 39.0686134], [117.6395148, 39.0685666], [117.6394813, 39.0685655], [117.6394759, 39.0684344], [117.6392372, 39.0684437], [117.6392439, 39.0685812], [117.639209, 39.0685836], [117.639209, 39.0686291], [117.6392399, 39.0686259], [117.6392358, 39.0686426], [117.6388416, 39.0686603], [117.6388416, 39.0686343], [117.6385747, 39.0686499], [117.6385908, 39.0687665], [117.6387906, 39.0687561], [117.6388027, 39.0688396]]]}, "properties": {"building": "school", "osm_id": "way/1497708669", "category": "building:school", "in_campus": true}}, {"type": "Feature", "id": "way/1497708670", "geometry": {"type": "Polygon", "coordinates": [[[117.638806, 39.0695643], [117.6390963, 39.0695494], [117.6390852, 39.0694195], [117.6389285, 39.0694275], [117.6388969, 39.0690562], [117.6387682, 39.0690628], [117.6387669, 39.0690476], [117.6386665, 39.0690527], [117.6386743, 39.0691449], [117.6386916, 39.069144], [117.6387195, 39.0694709], [117.6387977, 39.0694669], [117.638806, 39.0695643]]]}, "properties": {"building": "school", "osm_id": "way/1497708670", "category": "building:school", "in_campus": true}}, {"type": "Feature", "id": "way/1497708671", "geometry": {"type": "Polygon", "coordinates": [[[117.6400934, 39.0694979], [117.6398034, 39.069516], [117.63979, 39.0693862], [117.6399466, 39.0693765], [117.6399083, 39.0690055], [117.6400368, 39.0689975], [117.6400352, 39.0689823], [117.6401356, 39.068976], [117.640145, 39.0690681], [117.6401278, 39.0690691], [117.6401615, 39.0693957], [117.6400834, 39.0694006], [117.6400934, 39.0694979]]]}, "properties": {"building": "school", "osm_id": "way/1497708671", "category": "building:school", "in_campus": true}}, {"type": "Feature", "id": "way/1497708672", "geometry": {"type": "Polygon", "coordinates": [[[117.6410269, 39.0687839], [117.6408186, 39.0687925], [117.6406906, 39.0688012], [117.6406915, 39.0688552], [117.6406751, 39.0688733], [117.6406658, 39.0688987], [117.6406611, 39.0689223], [117.6406635, 39.0689513], [117.6406751, 39.0689785], [117.6406868, 39.0690093], [117.6407148, 39.0690347], [117.6407639, 39.0690619], [117.6408152, 39.0690746], [117.6409133, 39.0690746], [117.640918, 39.0691253], [117.6412309, 39.0691126], [117.6412309, 39.069138], [117.6413079, 39.0691362], [117.6413056, 39.0691072], [117.6413453, 39.0690999], [117.6413756, 39.0690782], [117.6413943, 39.0690546], [117.6414036, 39.0690202], [117.6414013, 39.0689966], [117.641385, 39.0689604], [117.6413546, 39.068944], [117.6413173, 39.0689259], [117.6412729, 39.0689295], [117.6412309, 39.068944], [117.6412052, 39.0689585], [117.6411935, 39.0689875], [117.6411211, 39.068993], [117.6411094, 39.0688298], [117.6411094, 39.0688117], [117.6411398, 39.0688099], [117.6411561, 39.0687972], [117.6411541, 39.0687827], [117.641127, 39.0687786], [117.6410269, 39.0687839]]]}, "properties": {"building": "school", "type": "multipolygon", "osm_id": "way/1497708672", "category": "building:school", "in_campus": true}}, {"type": "Feature", "id": "way/1497712886", "geometry": {"type": "LineString", "coordinates": [[117.6339569, 39.0671893], [117.6378822, 39.0669733], [117.6392291, 39.0669061], [117.6405656, 39.0668394], [117.6418714, 39.0667742], [117.6420568, 39.0667645]]}, "properties": {"highway": "service", "osm_id": "way/1497712886", "category": "highway:service", "in_campus": true}}, {"type": "Feature", "id": "way/1497712887", "geometry": {"type": "LineString", "coordinates": [[117.6422756, 39.066753], [117.6425827, 39.0667369], [117.6426765, 39.066732]]}, "properties": {"highway": "service", "osm_id": "way/1497712887", "category": "highway:service", "in_campus": false}}, {"type": "Feature", "id": "way/1497712888", "geometry": {"type": "LineString", "coordinates": [[117.6420568, 39.0667645], [117.6422756, 39.066753]]}, "properties": {"bridge": "yes", "highway": "service", "layer": "1", "osm_id": "way/1497712888", "category": "highway:service", "in_campus": true}}, {"type": "Feature", "id": "way/1497712889", "geometry": {"type": "Polygon", "coordinates": [[[117.6378326, 39.0653738], [117.6378964, 39.0653708], [117.6378986, 39.0653993], [117.6380129, 39.0653938], [117.6380108, 39.0653672], [117.6385209, 39.0653425], [117.6385232, 39.0653708], [117.6396709, 39.0653153], [117.6396686, 39.0652861], [117.6401937, 39.0652608], [117.640196, 39.0652897], [117.6403685, 39.0652813], [117.6403579, 39.0651492], [117.6402488, 39.0651544], [117.6402438, 39.0650913], [117.6379206, 39.0652031], [117.6379252, 39.0652609], [117.6378239, 39.0652658], [117.6378326, 39.0653738]]]}, "properties": {"building": "school", "osm_id": "way/1497712889", "category": "building:school", "in_campus": true}}, {"type": "Feature", "id": "way/1497712890", "geometry": {"type": "LineString", "coordinates": [[117.639251, 39.0671632], [117.6392291, 39.0669061], [117.6391023, 39.0654183]]}, "properties": {"highway": "service", "osm_id": "way/1497712890", "category": "highway:service", "in_campus": true}}, {"type": "Feature", "id": "way/1497712891", "geometry": {"type": "LineString", "coordinates": [[117.6377647, 39.0655001], [117.6391023, 39.0654183], [117.6404509, 39.0653379]]}, "properties": {"highway": "service", "osm_id": "way/1497712891", "category": "highway:service", "in_campus": true}}, {"type": "Feature", "id": "way/1497712892", "geometry": {"type": "LineString", "coordinates": [[117.6378822, 39.0669733], [117.6377997, 39.0659392], [117.6377647, 39.0655001]]}, "properties": {"highway": "service", "osm_id": "way/1497712892", "category": "highway:service", "in_campus": true}}, {"type": "Feature", "id": "way/1497712893", "geometry": {"type": "LineString", "coordinates": [[117.6350395, 39.0697467], [117.6348281, 39.069772], [117.6346289, 39.0697657], [117.634328, 39.0693459], [117.6339833, 39.0687719], [117.6339718, 39.0687479], [117.6337914, 39.0683705], [117.6337264, 39.0681243], [117.6336613, 39.0679002], [117.6336166, 39.0676225], [117.6335841, 39.0674552], [117.6335841, 39.0673454], [117.6335841, 39.0672658], [117.6335871, 39.0672096]]}, "properties": {"highway": "service", "osm_id": "way/1497712893", "category": "highway:service", "in_campus": true}}, {"type": "Feature", "id": "way/1497712894", "geometry": {"type": "Polygon", "coordinates": [[[117.6323703, 39.0672736], [117.6333192, 39.0672187], [117.6332933, 39.0669477], [117.6323443, 39.0670024], [117.6323703, 39.0672736]]]}, "properties": {"building": "school", "osm_id": "way/1497712894", "category": "building:school", "in_campus": true}}, {"type": "Feature", "id": "way/1497712897", "geometry": {"type": "Polygon", "coordinates": [[[117.6349069, 39.0651248], [117.635757, 39.0651182], [117.6357519, 39.0647225], [117.6349018, 39.0647289], [117.6349069, 39.0651248]]]}, "properties": {"building": "school", "osm_id": "way/1497712897", "category": "building:school", "in_campus": true}}, {"type": "Feature", "id": "way/1497712898", "geometry": {"type": "Polygon", "coordinates": [[[117.6329547, 39.0651408], [117.6338157, 39.0651396], [117.6338147, 39.0647022], [117.6329536, 39.0647035], [117.6329547, 39.0651408]]]}, "properties": {"building": "school", "osm_id": "way/1497712898", "category": "building:school", "in_campus": true}}, {"type": "Feature", "id": "way/1497712899", "geometry": {"type": "Polygon", "coordinates": [[[117.6353508, 39.0704006], [117.6360298, 39.0703595], [117.6359891, 39.0700092], [117.635733, 39.070025], [117.6357519, 39.0702333], [117.6355582, 39.0702427], [117.6355532, 39.0702], [117.6355478, 39.0701709], [117.6355318, 39.0701459], [117.6355076, 39.0701313], [117.6354701, 39.0701313], [117.6354432, 39.0701375], [117.6354218, 39.0701542], [117.6354084, 39.0701813], [117.6354137, 39.0702521], [117.635336, 39.0702583], [117.6353508, 39.0704006]]]}, "properties": {"building": "school", "osm_id": "way/1497712899", "category": "building:school", "in_campus": true}}, {"type": "Feature", "id": "way/1497712900", "geometry": {"type": "Polygon", "coordinates": [[[117.6351786, 39.0698955], [117.6353609, 39.0698858], [117.6353237, 39.0694621], [117.6351414, 39.0694717], [117.6351786, 39.0698955]]]}, "properties": {"building": "school", "osm_id": "way/1497712900", "category": "building:school", "in_campus": true}}, {"type": "Feature", "id": "way/1497712901", "geometry": {"type": "Polygon", "coordinates": [[[117.6350521, 39.0692737], [117.6353392, 39.0692607], [117.6353225, 39.069038], [117.6353547, 39.0690255], [117.6353762, 39.0690047], [117.6353789, 39.0689756], [117.6353655, 39.0689485], [117.6353386, 39.0689277], [117.6352957, 39.0689256], [117.6352635, 39.068936], [117.6352421, 39.0689527], [117.635226, 39.0689756], [117.6351296, 39.0689799], [117.635122, 39.0688785], [117.6350228, 39.068883], [117.6350521, 39.0692737]]]}, "properties": {"building": "school", "osm_id": "way/1497712901", "category": "building:school", "in_campus": true}}, {"type": "Feature", "id": "way/1497712902", "geometry": {"type": "Polygon", "coordinates": [[[117.6349021, 39.0685723], [117.6350021, 39.0685656], [117.6349918, 39.0684723], [117.6350462, 39.0684679], [117.6350597, 39.0684924], [117.6350838, 39.068507], [117.635117, 39.0685209], [117.6351562, 39.0685174], [117.6351804, 39.0685028], [117.6351938, 39.0684737], [117.6352472, 39.0684701], [117.6352166, 39.0681952], [117.6352637, 39.068192], [117.6352483, 39.0680536], [117.6350205, 39.0680688], [117.6350245, 39.0681049], [117.6349307, 39.0681112], [117.6349483, 39.0682699], [117.6348692, 39.0682752], [117.6349021, 39.0685723]]]}, "properties": {"building": "school", "osm_id": "way/1497712902", "category": "building:school", "in_campus": true}}, {"type": "Feature", "id": "way/1497712903", "geometry": {"type": "Polygon", "coordinates": [[[117.6347145, 39.0696731], [117.634672, 39.0696648], [117.6345906, 39.0695851], [117.6343145, 39.0691894], [117.6342048, 39.0689999], [117.6340951, 39.0687828], [117.6339712, 39.0685465], [117.6338969, 39.0683788], [117.6338474, 39.068247], [117.6337907, 39.0681041], [117.6337447, 39.0679392], [117.6337023, 39.0677029], [117.633681, 39.0675325], [117.6336563, 39.0673814], [117.6336775, 39.0669417], [117.6339182, 39.0669307], [117.6339288, 39.0671286], [117.6339217, 39.0672989], [117.6339323, 39.0674583], [117.6339111, 39.0675572], [117.6338969, 39.0676507], [117.6339075, 39.0677359], [117.6339465, 39.0678485], [117.6339854, 39.0680216], [117.6340279, 39.0681315], [117.6340456, 39.0682167], [117.6340349, 39.0682882], [117.6340491, 39.0683459], [117.6340845, 39.0684503], [117.634134, 39.0685052], [117.634173, 39.0685712], [117.634219, 39.0686234], [117.6343216, 39.0687663], [117.6343747, 39.068835], [117.6343959, 39.0689092], [117.6344172, 39.0689696], [117.6344632, 39.0690246], [117.6344986, 39.0690658], [117.6345623, 39.06914], [117.6345871, 39.0692142], [117.6345871, 39.0692746], [117.6346048, 39.0693351], [117.6346543, 39.0693735], [117.6347039, 39.069434], [117.634718, 39.0694835], [117.6347322, 39.0695494], [117.6347322, 39.0696181], [117.6347357, 39.0696538], [117.6347145, 39.0696731]]]}, "properties": {"natural": "water", "osm_id": "way/1497712903", "category": "natural:water", "in_campus": true}}, {"type": "Feature", "id": "way/1497712904", "geometry": {"type": "LineString", "coordinates": [[117.6340356, 39.0687388], [117.6343143, 39.0687075]]}, "properties": {"bridge": "yes", "highway": "service", "layer": "1", "osm_id": "way/1497712904", "category": "highway:service", "in_campus": true}}, {"type": "Feature", "id": "way/1497712905", "geometry": {"type": "LineString", "coordinates": [[117.6343143, 39.0687075], [117.634403, 39.0686976]]}, "properties": {"highway": "service", "osm_id": "way/1497712905", "category": "highway:service", "in_campus": true}}, {"type": "Feature", "id": "way/1497712906", "geometry": {"type": "LineString", "coordinates": [[117.6339718, 39.0687479], [117.6340356, 39.0687388]]}, "properties": {"highway": "service", "osm_id": "way/1497712906", "category": "highway:service", "in_campus": true}}, {"type": "Feature", "id": "way/1497712907", "geometry": {"type": "LineString", "coordinates": [[117.6335871, 39.0672096], [117.6336384, 39.0672068]]}, "properties": {"highway": "service", "osm_id": "way/1497712907", "category": "highway:service", "in_campus": true}}, {"type": "Feature", "id": "way/1497712908", "geometry": {"type": "LineString", "coordinates": [[117.6336384, 39.0672068], [117.6339569, 39.0671893]]}, "properties": {"bridge": "yes", "highway": "service", "layer": "1", "osm_id": "way/1497712908", "category": "highway:service", "in_campus": true}}, {"type": "Feature", "id": "way/1497712909", "geometry": {"type": "LineString", "coordinates": [[117.6365704, 39.0673007], [117.639251, 39.0671632], [117.6401136, 39.0671189]]}, "properties": {"highway": "service", "osm_id": "way/1497712909", "category": "highway:service", "in_campus": true}}, {"type": "Feature", "id": "way/1497712911", "geometry": {"type": "Polygon", "coordinates": [[[117.6398469, 39.0700389], [117.6404539, 39.0700078], [117.6404477, 39.0699408], [117.6404804, 39.0699404], [117.6404865, 39.0699199], [117.6404844, 39.069901], [117.6404763, 39.0698821], [117.6404397, 39.0698789], [117.6404316, 39.0697479], [117.6403686, 39.0697479], [117.6403645, 39.0697337], [117.6403116, 39.0697353], [117.6403137, 39.0697526], [117.6402507, 39.0697574], [117.6401937, 39.0697605], [117.6401531, 39.06977], [117.6401165, 39.0697858], [117.6400982, 39.0698095], [117.6400962, 39.069841], [117.6400982, 39.069901], [117.639838, 39.0699152], [117.6398469, 39.0700389]]]}, "properties": {"building": "school", "osm_id": "way/1497712911", "category": "building:school", "in_campus": true}}, {"type": "Feature", "id": "way/1497712912", "geometry": {"type": "LineString", "coordinates": [[117.6393802, 39.070349], [117.6393694, 39.0702089]]}, "properties": {"bridge": "yes", "highway": "service", "layer": "1", "osm_id": "way/1497712912", "category": "highway:service", "in_campus": false}}, {"type": "Feature", "id": "way/1497712913", "geometry": {"type": "LineString", "coordinates": [[117.6396489, 39.0703332], [117.6396382, 39.0701969]]}, "properties": {"bridge": "yes", "highway": "service", "layer": "1", "osm_id": "way/1497712913", "category": "highway:service", "in_campus": false}}, {"type": "Feature", "id": "way/1497712914", "geometry": {"type": "LineString", "coordinates": [[117.6396552, 39.070432], [117.6396489, 39.0703332]]}, "properties": {"highway": "service", "osm_id": "way/1497712914", "category": "highway:service", "in_campus": false}}, {"type": "Feature", "id": "way/1497712915", "geometry": {"type": "LineString", "coordinates": [[117.6396382, 39.0701969], [117.639629, 39.0700882]]}, "properties": {"highway": "service", "osm_id": "way/1497712915", "category": "highway:service", "in_campus": true}}, {"type": "Feature", "id": "way/1497712916", "geometry": {"type": "LineString", "coordinates": [[117.6393876, 39.0704452], [117.6393802, 39.070349]]}, "properties": {"highway": "service", "osm_id": "way/1497712916", "category": "highway:service", "in_campus": false}}, {"type": "Feature", "id": "way/1497712917", "geometry": {"type": "LineString", "coordinates": [[117.6393694, 39.0702089], [117.6393578, 39.0701]]}, "properties": {"highway": "service", "osm_id": "way/1497712917", "category": "highway:service", "in_campus": true}}, {"type": "Feature", "id": "way/1497712918", "geometry": {"type": "Polygon", "coordinates": [[[117.6382627, 39.0701176], [117.638716, 39.0700907], [117.638716, 39.0701097], [117.6387485, 39.0700923], [117.6387851, 39.0700797], [117.6387892, 39.0701223], [117.638905, 39.070116], [117.638903, 39.0700718], [117.6389294, 39.070075], [117.6389619, 39.0700844], [117.6389965, 39.0700986], [117.6389981, 39.0700865], [117.6390675, 39.0700841], [117.6390628, 39.0700458], [117.6391198, 39.0700434], [117.6391214, 39.0700542], [117.6391599, 39.0700542], [117.6391507, 39.0698963], [117.6389612, 39.0699071], [117.6389596, 39.0699262], [117.6388811, 39.0699298], [117.6388703, 39.069919], [117.6388456, 39.0699119], [117.6388148, 39.0699155], [117.6387917, 39.0699262], [117.6387825, 39.0699394], [117.6387116, 39.0699454], [117.638707, 39.069925], [117.6382895, 39.0699501], [117.6382941, 39.0700016], [117.6382494, 39.070004], [117.6382627, 39.0701176]]]}, "properties": {"building": "school", "osm_id": "way/1497712918", "category": "building:school", "in_campus": true}}, {"type": "Feature", "id": "way/1497712919", "geometry": {"type": "Polygon", "coordinates": [[[117.6362653, 39.0702381], [117.6362489, 39.0700743], [117.6366155, 39.0700523], [117.6366318, 39.0702162], [117.6362653, 39.0702381]]]}, "properties": {"building": "yes", "osm_id": "way/1497712919", "category": "building:yes", "in_campus": true}}, {"type": "Feature", "id": "way/1497712921", "geometry": {"type": "Polygon", "coordinates": [[[117.6354449, 39.0706536], [117.6357037, 39.0705914], [117.6359779, 39.0705364], [117.6361936, 39.0704886], [117.6364401, 39.0704384], [117.6366773, 39.0704001], [117.6368653, 39.0703618], [117.6370563, 39.0703522], [117.6373058, 39.0703331], [117.6379991, 39.0703068], [117.638301, 39.0702853], [117.6386338, 39.0702685], [117.6406272, 39.0701681], [117.641151, 39.070137], [117.6423218, 39.0700915], [117.6424664, 39.0700815], [117.6424789, 39.0701633], [117.6423773, 39.070192], [117.6421184, 39.0702015], [117.6410401, 39.0702494], [117.6392469, 39.0703451], [117.6380083, 39.0703977], [117.6372011, 39.0704479], [117.6369947, 39.0704527], [117.6366958, 39.0704838], [117.6364154, 39.0705269], [117.6362552, 39.0705556], [117.6361782, 39.0705795], [117.6361104, 39.070601], [117.6359933, 39.0706249], [117.6354449, 39.0706536]]]}, "properties": {"natural": "water", "osm_id": "way/1497712921", "category": "natural:water", "in_campus": false}}, {"type": "Feature", "id": "way/1497712922", "geometry": {"type": "Polygon", "coordinates": [[[117.635921, 39.0698033], [117.6364689, 39.0697758], [117.6364709, 39.0697943], [117.6366035, 39.0697859], [117.6366008, 39.0697603], [117.6366246, 39.0697588], [117.6366175, 39.0696911], [117.6365746, 39.0696938], [117.6365702, 39.0696524], [117.6364146, 39.0696622], [117.6364167, 39.0696819], [117.6363432, 39.0696866], [117.6363409, 39.0696651], [117.6361896, 39.0696747], [117.6361922, 39.0697], [117.6361203, 39.0697046], [117.6361169, 39.0696714], [117.6359523, 39.0696818], [117.6359545, 39.0697031], [117.6359101, 39.0697079], [117.635921, 39.0698033]]]}, "properties": {"building": "yes", "name": "学生公寓1号楼", "osm_id": "way/1497712922", "category": "building:yes", "in_campus": true}}, {"type": "Feature", "id": "way/1497712923", "geometry": {"type": "Polygon", "coordinates": [[[117.6359903, 39.0694454], [117.6361311, 39.0694389], [117.6361296, 39.0694201], [117.6363653, 39.0694093], [117.6363662, 39.0694222], [117.6364996, 39.0694162], [117.6364983, 39.0693987], [117.6365417, 39.0693968], [117.6365382, 39.0693503], [117.6365533, 39.0693496], [117.6365622, 39.0693372], [117.6365551, 39.0693239], [117.6365395, 39.0693237], [117.6365361, 39.0692787], [117.6359431, 39.0693101], [117.635947, 39.0693541], [117.6359287, 39.0693551], [117.6359198, 39.0693674], [117.6359287, 39.0693784], [117.6359492, 39.0693775], [117.6359529, 39.0694256], [117.6359887, 39.069424], [117.6359903, 39.0694454]]]}, "properties": {"building": "yes", "name": "学生公寓2号楼", "osm_id": "way/1497712923", "category": "building:yes", "in_campus": true}}, {"type": "Feature", "id": "way/1497712924", "geometry": {"type": "Polygon", "coordinates": [[[117.635962, 39.0691239], [117.6361027, 39.0691174], [117.6361013, 39.0690986], [117.636337, 39.0690878], [117.6363379, 39.0691007], [117.6364713, 39.0690947], [117.63647, 39.0690773], [117.6365134, 39.0690753], [117.6365099, 39.0690288], [117.636525, 39.0690281], [117.6365339, 39.0690157], [117.6365268, 39.0690025], [117.6365112, 39.0690022], [117.6365077, 39.0689572], [117.6359148, 39.0689886], [117.6359187, 39.0690326], [117.6359004, 39.0690336], [117.6358915, 39.0690459], [117.6359004, 39.0690569], [117.6359209, 39.069056], [117.6359246, 39.0691041], [117.6359604, 39.0691025], [117.635962, 39.0691239]]]}, "properties": {"building": "yes", "name": "学生公寓3号楼", "osm_id": "way/1497712924", "category": "building:yes", "in_campus": true}}, {"type": "Feature", "id": "way/1497712925", "geometry": {"type": "Polygon", "coordinates": [[[117.6358964, 39.0683979], [117.6360371, 39.0683914], [117.6360357, 39.0683726], [117.6362714, 39.0683618], [117.6362723, 39.0683747], [117.6364057, 39.0683687], [117.6364044, 39.0683513], [117.6364478, 39.0683493], [117.6364443, 39.0683028], [117.6364594, 39.0683021], [117.6364683, 39.0682897], [117.6364612, 39.0682765], [117.6364456, 39.0682762], [117.6364421, 39.0682312], [117.6358492, 39.0682626], [117.6358531, 39.0683066], [117.6358348, 39.0683076], [117.6358259, 39.0683199], [117.6358348, 39.0683309], [117.6358553, 39.06833], [117.635859, 39.0683781], [117.6358948, 39.0683765], [117.6358964, 39.0683979]]]}, "properties": {"building": "yes", "name": "学生公寓4号楼", "osm_id": "way/1497712925", "category": "building:yes", "in_campus": true}}, {"type": "Feature", "id": "way/1497712926", "geometry": {"type": "Polygon", "coordinates": [[[117.6358696, 39.0680689], [117.6360103, 39.0680624], [117.6360089, 39.0680436], [117.6362445, 39.0680328], [117.6362455, 39.0680457], [117.6363789, 39.0680397], [117.6363776, 39.0680222], [117.6364209, 39.0680203], [117.6364174, 39.0679737], [117.6364326, 39.0679731], [117.6364415, 39.0679607], [117.6364344, 39.0679474], [117.6364188, 39.0679472], [117.6364153, 39.0679022], [117.6358224, 39.0679336], [117.6358262, 39.0679776], [117.6358079, 39.0679786], [117.6357991, 39.0679909], [117.6358079, 39.0680019], [117.6358285, 39.068001], [117.6358321, 39.0680491], [117.635868, 39.0680474], [117.6358696, 39.0680689]]]}, "properties": {"building": "yes", "name": "学生公寓5号楼", "osm_id": "way/1497712926", "category": "building:yes", "in_campus": true}}, {"type": "Feature", "id": "way/1497712927", "geometry": {"type": "Polygon", "coordinates": [[[117.6358428, 39.0676982], [117.6359835, 39.0676917], [117.6359821, 39.0676729], [117.6362177, 39.0676621], [117.6362187, 39.067675], [117.636352, 39.067669], [117.6363507, 39.0676516], [117.6363941, 39.0676496], [117.6363906, 39.0676031], [117.6364058, 39.0676024], [117.6364146, 39.06759], [117.6364076, 39.0675768], [117.636392, 39.0675765], [117.6363885, 39.0675315], [117.6357955, 39.0675629], [117.6357994, 39.0676069], [117.6357811, 39.0676079], [117.6357723, 39.0676202], [117.6357811, 39.0676312], [117.6358017, 39.0676303], [117.6358053, 39.0676784], [117.6358412, 39.0676768], [117.6358428, 39.0676982]]]}, "properties": {"building": "yes", "name": "学生公寓6号楼", "osm_id": "way/1497712927", "category": "building:yes", "in_campus": true}}, {"type": "Feature", "id": "way/1497712928", "geometry": {"type": "Polygon", "coordinates": [[[117.6349925, 39.0677398], [117.6351332, 39.0677334], [117.6351318, 39.0677145], [117.6353674, 39.0677038], [117.6353684, 39.0677167], [117.6355018, 39.0677106], [117.6355005, 39.0676932], [117.6355439, 39.0676912], [117.6355404, 39.0676447], [117.6355555, 39.067644], [117.6355644, 39.0676317], [117.6355573, 39.0676184], [117.6355417, 39.0676181], [117.6355382, 39.0675732], [117.6349453, 39.0676045], [117.6349491, 39.0676486], [117.6349309, 39.0676495], [117.634922, 39.0676619], [117.6349309, 39.0676729], [117.6349514, 39.0676719], [117.6349551, 39.0677201], [117.6349909, 39.0677184], [117.6349925, 39.0677398]]]}, "properties": {"building": "yes", "name": "学生公寓7号楼", "osm_id": "way/1497712928", "category": "building:yes", "in_campus": true}}, {"type": "Feature", "id": "way/1497712929", "geometry": {"type": "Polygon", "coordinates": [[[117.634963, 39.0674108], [117.6351037, 39.0674044], [117.6351023, 39.0673855], [117.6353379, 39.0673747], [117.6353389, 39.0673877], [117.6354723, 39.0673816], [117.635471, 39.0673642], [117.6355144, 39.0673622], [117.6355109, 39.0673157], [117.635526, 39.067315], [117.6355349, 39.0673026], [117.6355278, 39.0672894], [117.6355122, 39.0672891], [117.6355087, 39.0672441], [117.6349158, 39.0672755], [117.6349196, 39.0673195], [117.6349014, 39.0673205], [117.6348925, 39.0673329], [117.6349014, 39.0673438], [117.6349219, 39.0673429], [117.6349256, 39.067391], [117.6349614, 39.0673894], [117.634963, 39.0674108]]]}, "properties": {"building": "yes", "name": "学生公寓8号楼", "osm_id": "way/1497712929", "category": "building:yes", "in_campus": true}}, {"type": "Feature", "id": "way/1497712930", "geometry": {"type": "Polygon", "coordinates": [[[117.6358186, 39.0673608], [117.6359594, 39.0673544], [117.6359579, 39.0673355], [117.6361936, 39.0673248], [117.6361945, 39.0673377], [117.6363279, 39.0673316], [117.6363266, 39.0673142], [117.63637, 39.0673122], [117.6363665, 39.0672657], [117.6363816, 39.067265], [117.6363905, 39.0672527], [117.6363834, 39.0672394], [117.6363678, 39.0672391], [117.6363644, 39.0671942], [117.6357714, 39.0672255], [117.6357753, 39.0672695], [117.635757, 39.0672705], [117.6357481, 39.0672829], [117.635757, 39.0672939], [117.6357775, 39.0672929], [117.6357812, 39.067341], [117.635817, 39.0673394], [117.6358186, 39.0673608]]]}, "properties": {"building": "yes", "name": "学生公寓9号楼", "osm_id": "way/1497712930", "category": "building:yes", "in_campus": true}}, {"type": "Feature", "id": "way/1497758057", "geometry": {"type": "Polygon", "coordinates": [[[117.6408186, 39.0687925], [117.6410269, 39.0687839], [117.6410105, 39.0685443], [117.6407322, 39.0685558], [117.6407274, 39.0684851], [117.640668, 39.0684876], [117.6406664, 39.068465], [117.640508, 39.0684716], [117.6405094, 39.0684927], [117.6404343, 39.0684958], [117.6404522, 39.0687567], [117.6405459, 39.0687528], [117.6405444, 39.0687316], [117.6408137, 39.0687205], [117.6408186, 39.0687925]]]}, "properties": {"building": "school", "type": "multipolygon", "osm_id": "way/1497758057", "category": "building:school", "in_campus": true}}, {"type": "Feature", "id": "way/1497898911", "geometry": {"type": "Polygon", "coordinates": [[[117.6429867, 39.0666392], [117.6443932, 39.0667879], [117.644232, 39.0653299], [117.6428493, 39.065177], [117.6429867, 39.0666392]]]}, "properties": {"landuse": "retail", "name": "金元宝海洋生活广场", "osm_id": "way/1497898911", "category": "landuse:retail", "in_campus": false}}, {"type": "Feature", "id": "way/1497898916", "geometry": {"type": "LineString", "coordinates": [[117.6405656, 39.0668394], [117.6404509, 39.0653379]]}, "properties": {"highway": "service", "osm_id": "way/1497898916", "category": "highway:service", "in_campus": true}}, {"type": "Feature", "id": "way/1500339513", "geometry": {"type": "Polygon", "coordinates": [[[117.635505, 39.0645133], [117.6352745, 39.0644906], [117.6346375, 39.0644468], [117.6346492, 39.0642331], [117.6348214, 39.064179], [117.6349448, 39.0641655], [117.6350921, 39.0641686], [117.6361035, 39.0642352], [117.6376511, 39.0643306], [117.6422412, 39.064924], [117.6422826, 39.0651001], [117.6423506, 39.0651475], [117.6423477, 39.0652422], [117.6422928, 39.0652533], [117.6423257, 39.0656237], [117.6421133, 39.0656283], [117.6421074, 39.065543], [117.642071, 39.0655242], [117.6415821, 39.065526], [117.6414119, 39.0653473], [117.6409752, 39.0652481], [117.6407541, 39.0652582], [117.6404921, 39.0652376], [117.6404764, 39.0650646], [117.6378259, 39.0648913], [117.6370358, 39.064929], [117.637007, 39.0647305], [117.6358177, 39.0646157], [117.6358076, 39.0645889], [117.6355046, 39.0645614], [117.635505, 39.0645133]]]}, "properties": {"landuse": "construction", "name": "地铁B1线云山道站施工区域", "osm_id": "way/1500339513", "category": "landuse:construction", "in_campus": false}}, {"type": "Feature", "id": "way/1509149155", "geometry": {"type": "LineString", "coordinates": [[117.6297281, 39.0640197], [117.6299043, 39.0640022]]}, "properties": {"highway": "secondary", "lanes": "3", "name": "云山道", "oneway": "yes", "osm_id": "way/1509149155", "category": "highway:secondary", "in_campus": false}}]}